Name,Address,Bing Maps URL,Latitude,Longitude,Phone,pincode,City,District
Chirayu Hospital,"Matru Deep Co Operative Housing Society Limited, Thane, Maharashtra 401107",https://www.bing.com/maps?cp=19.2956485748291%7E72.86042022705078&lvl=17.0&q=Chirayu%20Hospital%20%2C%20Matru%20Deep%20Co%20Operative%20Housing%20Society%20Limited%2C%20Thane%2C%20Maharashtra%20401107,19.29564857,72.86042023,080970 24744,401107,Mira Bhayandar,Thane
Sai Baba Hospital & Polyclinic,"Shiv Shraddha Complex, First Floor, B. P. Road, Bhayandar (E), Dist, Thane 401105",https://www.bing.com/maps?cp=19.308265686035156%7E72.85482025146484&lvl=17.0&q=Sai%20Baba%20Hospital%20%26%20Polyclinic%20%2C%20Shiv%20Shraddha%20Complex%2C%20First%20Floor%2C%20B.%20P.%20Road%2C%20Bhayandar%20(E)%2C%20Dist%2C%20Thane%20401105,19.30826569,72.85482025,022 2804 5015,401105,Mira Bhayandar,Thane
Wockhardt Super Speciality Hospital,"The Umrao Imsr, Near Railway Station, Mira Road (E), Thane, Mumbai, Maharashtra 401107",https://www.bing.com/maps?cp=19.284332275390625%7E72.8624496459961&lvl=17.0&q=Wockhardt%20Super%20Speciality%20Hospital%20%2C%20The%20Umrao%20Imsr%2C%20Near%20Railway%20Station%2C%20Mira%20Road%20(E)%2C%20Thane%2C%20Mumbai%2C%20Maharashtra%20401107,19.28433228,72.86244965,022 2855 6000,401107,Mira Bhayandar,Thane
Dr. Pratima Sunil Chopade-General Physician,"Kaustubh Polyclinic And Day Care Centre, Shop No. 3/G2, Shiv Ashirwad Apartment, R.N.P. Park, Jesal Park Rd, Bandarwadi, Bhayander, Maharashtra 401105",https://www.bing.com/maps?cp=19.3145809173584%7E72.85612487792969&lvl=17.0&q=Dr.%20Pratima%20Sunil%20Chopade-General%20Physician%20%2C%20Kaustubh%20Polyclinic%20And%20Day%20Care%20Centre%2C%20Shop%20No.%203%2FG2%2C%20Shiv%20Ashirwad%20Apartment%2C%20R.N.P.%20Park%2C%20Jesal%20Park%20Rd%2C%20Bandarwadi%2C%20Bhayander%2C%20Maharashtra%20401105,19.31458092,72.85612488,099208 10559,401105,Mira Bhayandar,Thane
Shree Krishna Clinic,"Sai Mahal Chs Wing-A/b, Pk Road, Mira Bhayandar, Mumbai, Maharashtra 401105",https://www.bing.com/maps?cp=19.31332778930664%7E72.8548583984375&lvl=17.0&q=Shree%20Krishna%20Clinic%20%2C%20Sai%20Mahal%20Chs%20Wing-A%2Fb%2C%20Pk%20Road%2C%20Mira%20Bhayandar%2C%20Mumbai%2C%20Maharashtra%20401105,19.31332779,72.8548584,022 2816 8380,401105,Mira Bhayandar,Thane
Metro Medical & Ayurvedic Bhandar,"Bhayandar East, Thane, Maharashtra 401105",https://www.bing.com/maps?cp=19.311031341552734%7E72.85340881347656&lvl=17.0&q=Metro%20Medical%20%26%20Ayurvedic%20Bhandar%20%2C%20Bhayandar%20East%2C%20Thane%2C%20Maharashtra%20401105,19.31103134,72.85340881,022 2814 6817,401105,Mira Bhayandar,Thane
Sai Sparsh Clinic,"Shop no. 5. Tajmahal Building. Opposite Ashwini Hospital . Goddev Naka Bhayander East, Mumbai, Maharashtra 401105",https://www.bing.com/maps?cp=19.30353546142578%7E72.86041259765625&lvl=17.0&q=Sai%20Sparsh%20Clinic%20%2C%20Shop%20no.%205.%20Tajmahal%20Building.%20Opposite%20Ashwini%20Hospital%20.%20Goddev%20Naka%20Bhayander%20East%2C%20Mumbai%2C%20Maharashtra%20401105,19.30353546,72.8604126,098333 08368,401105,Mira Bhayandar,Thane
Ranakpur Clinic,"Shreepal Nagar Chs, Bhagwan Shree Vardhaman Road, Mira Bhayandar, Mumbai, Maharashtra 401101",https://www.bing.com/maps?cp=19.305469512939453%7E72.8509292602539&lvl=17.0&q=Ranakpur%20Clinic%20%2C%20Shreepal%20Nagar%20Chs%2C%20Bhagwan%20Shree%20Vardhaman%20Road%2C%20Mira%20Bhayandar%2C%20Mumbai%2C%20Maharashtra%20401101,19.30546951,72.85092926,,401101,Mira Bhayandar,Thane
Medicine India,"Shop No, 4 Sheetal Swar, Near Mtnl, Mtnl Road, Mira Road, Thane, Mumbai 401107",https://www.bing.com/maps?cp=19.283159255981445%7E72.86720275878906&lvl=17.0&q=Medicine%20India%20%2C%20Shop%20No%2C%204%20Sheetal%20Swar%2C%20Near%20Mtnl%2C%20Mtnl%20Road%2C%20Mira%20Road%2C%20Thane%2C%20Mumbai%20401107,19.28315926,72.86720276,022 4918 6468,401107,Mira Bhayandar,Thane
Shree Nathji Clinic,"Jain Nagar Road, Bhayandar East, Mumbai, Maharashtra 401105",https://www.bing.com/maps?cp=19.303903579711914%7E72.85501861572266&lvl=17.0&q=Shree%20Nathji%20Clinic%20%2C%20Jain%20Nagar%20Road%2C%20Bhayandar%20East%2C%20Mumbai%2C%20Maharashtra%20401105,19.30390358,72.85501862,098206 19526,401105,Mira Bhayandar,Thane
Jayant Clinic,"Ashok Samrat Chs, Bhagwan Shree Vardhaman Road, Bhayander West, Mumbai, Maharashtra 401101",https://www.bing.com/maps?cp=19.305070877075195%7E72.8509750366211&lvl=17.0&q=Jayant%20Clinic%20%2C%20Ashok%20Samrat%20Chs%2C%20Bhagwan%20Shree%20Vardhaman%20Road%2C%20Bhayander%20West%2C%20Mumbai%2C%20Maharashtra%20401101,19.30507088,72.85097504,,401101,Mira Bhayandar,Thane
Sunder Clinic,"Shop No. 16, Pushpa Nikethan Apartment, Near Maxus Mall, Temba Rd, Bhayandar, Padmavati Nagar, Bhayandar West, Maharashtra 401101",https://www.bing.com/maps?cp=19.29671859741211%7E72.8501205444336&lvl=17.0&q=Sunder%20Clinic%20%2C%20Shop%20No.%2016%2C%20Pushpa%20Nikethan%20Apartment%2C%20Near%20Maxus%20Mall%2C%20Temba%20Rd%2C%20Bhayandar%2C%20Padmavati%20Nagar%2C%20Bhayandar%20West%2C%20Maharashtra%20401101,19.2967186,72.85012054,098205 82280,401101,Mira Bhayandar,Thane
Bhagya Clinic,"Sai Baba Nagar Rd, Anant Vijay Apt, Paras Nagar, Mira Bhayandar, Mumbai, Maharashtra 401105",https://www.bing.com/maps?cp=19.310932159423828%7E72.85997009277344&lvl=17.0&q=Bhagya%20Clinic%20%2C%20Sai%20Baba%20Nagar%20Rd%2C%20Anant%20Vijay%20Apt%2C%20Paras%20Nagar%2C%20Mira%20Bhayandar%2C%20Mumbai%2C%20Maharashtra%20401105,19.31093216,72.85997009,,401105,Mira Bhayandar,Thane
Sai Siddhi Medical,"Ground Floor, Shop No. G-4, Vinayak Thakur Complex, Godadev, Navghar Road, Bhayander East, Thane, Maharashtra 401101",https://www.bing.com/maps?cp=19.30877685546875%7E72.8526611328125&lvl=17.0&q=Sai%20Siddhi%20Medical%20%2C%20Ground%20Floor%2C%20Shop%20No.%20G-4%2C%20Vinayak%20Thakur%20Complex%2C%20Godadev%2C%20Navghar%20Road%2C%20Bhayander%20East%2C%20Thane%2C%20Maharashtra%20401101,19.30877686,72.85266113,,401101,Mira Bhayandar,Thane
National Medical,"Rahul Park, 6/B, Station OAD, Bhayander, Thane, Maharashtra 401105",https://www.bing.com/maps?cp=19.310075759887695%7E72.85334777832031&lvl=17.0&q=National%20Medical%20%2C%20Rahul%20Park%2C%206%2FB%2C%20Station%20OAD%2C%20Bhayander%2C%20Thane%2C%20Maharashtra%20401105,19.31007576,72.85334778,090762 36995,401105,Mira Bhayandar,Thane
Prabhat Medical&General Stores,"Mira Road, Thane, Maharashtra 401107",https://www.bing.com/maps?cp=19.292842864990234%7E72.85636901855469&lvl=17.0&q=Prabhat%20Medical%26General%20Stores%20%2C%20Mira%20Road%2C%20Thane%2C%20Maharashtra%20401107,19.29284286,72.85636902,098707 35320,401107,Mira Bhayandar,Thane
Vaishali Health Clinic,"Jay Ambe Marg, Poonam Sagar Complex Bus Stop, Sector 9, Mumbai, Maharashtra 401107",https://www.bing.com/maps?cp=19.274646759033203%7E72.86192321777344&lvl=17.0&q=Vaishali%20Health%20Clinic%20%2C%20Jay%20Ambe%20Marg%2C%20Poonam%20Sagar%20Complex%20Bus%20Stop%2C%20Sector%209%2C%20Mumbai%2C%20Maharashtra%20401107,19.27464676,72.86192322,088980 19122,401107,Mira Bhayandar,Thane
Alka Clinic,"Sector 5, Shanti Nagar, Mira Bhayandar, MaharaShtra 401107",https://www.bing.com/maps?cp=19.27638053894043%7E72.86274719238281&lvl=17.0&q=Alka%20Clinic%20%2C%20Sector%205%2C%20Shanti%20Nagar%2C%20Mira%20Bhayandar%2C%20MaharaShtra%20401107,19.27638054,72.86274719,022 2811 1029,401107,Mira Bhayandar,Thane
Rajput Clinic,"Shop No.7, 120/122, Vithalwadi, Lohar Chawl, Mumbai, Mumbai 401107",https://www.bing.com/maps?cp=19.276649475097656%7E72.86302947998047&lvl=17.0&q=Rajput%20Clinic%20%2C%20Shop%20No.7%2C%20120%2F122%2C%20Vithalwadi%2C%20Lohar%20Chawl%2C%20Mumbai%2C%20Mumbai%20401107,19.27664948,72.86302948,022 2811 9961,401107,Mira Bhayandar,Thane
Omkar Clinic,"Plaza Vihar Society 1, Dr. Babasaheb Ambedkar Road, Mira Road East, Mumbai, Maharashtra 401107",https://www.bing.com/maps?cp=19.27910804748535%7E72.86722564697266&lvl=17.0&q=Omkar%20Clinic%20%2C%20Plaza%20Vihar%20Society%201%2C%20Dr.%20Babasaheb%20Ambedkar%20Road%2C%20Mira%20Road%20East%2C%20Mumbai%2C%20Maharashtra%20401107,19.27910805,72.86722565,098927 80760,401107,Mira Bhayandar,Thane
Dr. Jagadish Consultant Physician,"Dr.Telang Clinic, 004/B6, Station Road, Sector 4, Shanti Nagar, Mira Road, Mira Bhayandar, Thane, Maharashtra 401107",https://www.bing.com/maps?cp=19.28154182434082%7E72.86100769042969&lvl=17.0&q=Dr.%20Jagadish%20Consultant%20Physician%20%2C%20Dr.Telang%20Clinic%2C%20004%2FB6%2C%20Station%20Road%2C%20Sector%204%2C%20Shanti%20Nagar%2C%20Mira%20Road%2C%20Mira%20Bhayandar%2C%20Thane%2C%20Maharashtra%20401107,19.28154182,72.86100769,098208 43066,401107,Mira Bhayandar,Thane
Shree Ganesh Medical & General Stores,"Idel Tower, B-Wing, Shop NO 9, OPP Sivar Garden, N H School, Mira Road East, Thane, Maharashtra 401107",https://www.bing.com/maps?cp=19.28433609008789%7E72.8658447265625&lvl=17.0&q=Shree%20Ganesh%20Medical%20%26%20General%20Stores%20%2C%20Idel%20Tower%2C%20B-Wing%2C%20Shop%20NO%209%2C%20OPP%20Sivar%20Garden%2C%20N%20H%20School%2C%20Mira%20Road%20East%2C%20Thane%2C%20Maharashtra%20401107,19.28433609,72.86584473,022 2855 4458,401107,Mira Bhayandar,Thane
Saimauli Medical&Genral Stores,"B 22 Shop NO 20, Ground Floor, RNA Broadway, B 22 20Mira, Thane, Maharashtra 401107",https://www.bing.com/maps?cp=19.280864715576172%7E72.8644027709961&lvl=17.0&q=Saimauli%20Medical%26Genral%20Stores%20%2C%20B%2022%20Shop%20NO%2020%2C%20Ground%20Floor%2C%20RNA%20Broadway%2C%20B%2022%2020Mira%2C%20Thane%2C%20Maharashtra%20401107,19.28086472,72.86440277,098218 12960,401107,Mira Bhayandar,Thane
Dr Bhavna Singh Clinic,"100 Feet Road, Karnataka Bank Atm, Shanti Vihar, Mumbai, Maharashtra 401107",https://www.bing.com/maps?cp=19.272449493408203%7E72.8625717163086&lvl=17.0&q=Dr%20Bhavna%20Singh%20Clinic%20%2C%20100%20Feet%20Road%2C%20Karnataka%20Bank%20Atm%2C%20Shanti%20Vihar%2C%20Mumbai%2C%20Maharashtra%20401107,19.27244949,72.86257172,098203 95641,401107,Mira Bhayandar,Thane
Metro Medical & General Stores,"Sheetal Darshan CHS LTD, C-SH-006, Mtnl Road, Sheetal Nagar, Miraroad East, Thane, Maharashtra 401107",https://www.bing.com/maps?cp=19.283384323120117%7E72.8658676147461&lvl=17.0&q=Metro%20Medical%20%26%20General%20Stores%20%2C%20Sheetal%20Darshan%20CHS%20LTD%2C%20C-SH-006%2C%20Mtnl%20Road%2C%20Sheetal%20Nagar%2C%20Miraroad%20East%2C%20Thane%2C%20Maharashtra%20401107,19.28338432,72.86586761,022 2811 5063,401107,Mira Bhayandar,Thane
Sai Homeopathic Clinic,"Srishti Road, Surya Shopping Center, Mira Road East, Mumbai, Maharashtra 401107",https://www.bing.com/maps?cp=19.274822235107422%7E72.86943054199219&lvl=17.0&q=Sai%20Homeopathic%20Clinic%20%2C%20Srishti%20Road%2C%20Surya%20Shopping%20Center%2C%20Mira%20Road%20East%2C%20Mumbai%2C%20Maharashtra%20401107,19.27482224,72.86943054,097693 29998,401107,Mira Bhayandar,Thane
Pluse Kare Medical and General Store,"Mira, Thane, Maharashtra 401107",https://www.bing.com/maps?cp=19.265121459960938%7E72.87010192871094&lvl=17.0&q=Pluse%20Kare%20Medical%20and%20General%20Store%20%2C%20Mira%2C%20Thane%2C%20Maharashtra%20401107,19.26512146,72.87010193,090225 25250,401107,Mira Bhayandar,Thane
Anand Medico,"A-33, Sumangal Society, Anand Nagar, Mumbai, Maharashtra 400068",https://www.bing.com/maps?cp=19.2584285736084%7E72.8600845336914&lvl=17.0&q=Anand%20Medico%20%2C%20A-33%2C%20Sumangal%20Society%2C%20Anand%20Nagar%2C%20Mumbai%2C%20Maharashtra%20400068,19.25842857,72.86008453,022 2828 1664,400068,Dahisar,Mumbai
Dev Homeo Clinic,"2, Station Road, Icici Bank, Mira Road East, Mumbai, Maharashtra 401107",https://www.bing.com/maps?cp=19.28190803527832%7E72.85987854003906&lvl=17.0&q=Dev%20Homeo%20Clinic%20%2C%202%2C%20Station%20Road%2C%20Icici%20Bank%2C%20Mira%20Road%20East%2C%20Mumbai%2C%20Maharashtra%20401107,19.28190804,72.85987854,082917 72411,401107,Mira Bhayandar,Thane
Shree Balaji Medical,"D N Dubey Road, Shop NO 6, Liberty Stores, Ambawadi, NR ST, Xavierschool, Dahisar East, Mumbai, Maharashtra 400068",https://www.bing.com/maps?cp=19.253332138061523%7E72.87133026123047&lvl=17.0&q=Shree%20Balaji%20Medical%20%2C%20D%20N%20Dubey%20Road%2C%20Shop%20NO%206%2C%20Liberty%20Stores%2C%20Ambawadi%2C%20NR%20ST%2C%20Xavierschool%2C%20Dahisar%20East%2C%20Mumbai%2C%20Maharashtra%20400068,19.25333214,72.87133026,091377 97133,400068,Dahisar,Mumbai
Rudraksh Medical,"Krishna Garden No. 2, Bhakti Vedant Marg, Mira Bhayandar, Mumbai, Maharashtra 401107",https://www.bing.com/maps?cp=19.27086067199707%7E72.87529754638672&lvl=17.0&q=Rudraksh%20Medical%20%2C%20Krishna%20Garden%20No.%202%2C%20Bhakti%20Vedant%20Marg%2C%20Mira%20Bhayandar%2C%20Mumbai%2C%20Maharashtra%20401107,19.27086067,72.87529755,,401107,Mira Bhayandar,Thane
Isha Clinic,"St Xaviers High School Road, Centre Plaza, Mira Road East, Mumbai, Maharashtra 401107",https://www.bing.com/maps?cp=19.28036880493164%7E72.86498260498047&lvl=17.0&q=Isha%20Clinic%20%2C%20St%20Xaviers%20High%20School%20Road%2C%20Centre%20Plaza%2C%20Mira%20Road%20East%2C%20Mumbai%2C%20Maharashtra%20401107,19.2803688,72.8649826,,401107,Mira Bhayandar,Thane
Max Lab | Diagnostic Centre & Blood Test,"Building No 9, Shop No 31, Ground Floor, Poonam Estate Cluster 2, Srishti Road, Mira Bhayandar, Maharashtra 401107",https://www.bing.com/maps?cp=19.273677825927734%7E72.8704833984375&lvl=17.0&q=Max%20Lab%20%7C%20Diagnostic%20Centre%20%26%20Blood%20Test%20%2C%20Building%20No%209%2C%20Shop%20No%2031%2C%20Ground%20Floor%2C%20Poonam%20Estate%20Cluster%202%2C%20Srishti%20Road%2C%20Mira%20Bhayandar%2C%20Maharashtra%20401107,19.27367783,72.8704834,093268 49083,401107,Mira Bhayandar,Thane
Afiya Medical Stores,"Shop NO D-S/006 Chandresh Abhinandan Resort CHS LTD, Mira Road East Mira Road, Thane, Maharashtra 401107",https://www.bing.com/maps?cp=19.27493667602539%7E72.87240600585938&lvl=17.0&q=Afiya%20Medical%20Stores%20%2C%20Shop%20NO%20D-S%2F006%20Chandresh%20Abhinandan%20Resort%20CHS%20LTD%2C%20Mira%20Road%20East%20Mira%20Road%2C%20Thane%2C%20Maharashtra%20401107,19.27493668,72.87240601,090228 45953,401107,Mira Bhayandar,Thane
"Metropolis Healthcare Limited - Pathology Lab, Diagnostic Centre In Mira Road","Shop No 92, Ground Floor, Silver Park, Mira Road, Thane, Maharashtra 401107",https://www.bing.com/maps?cp=19.273622512817383%7E72.8696517944336&lvl=17.0&q=Metropolis%20Healthcare%20Limited%20-%20Pathology%20Lab%2C%20Diagnostic%20Centre%20In%20Mira%20Road%20%2C%20Shop%20No%2092%2C%20Ground%20Floor%2C%20Silver%20Park%2C%20Mira%20Road%2C%20Thane%2C%20Maharashtra%20401107,19.27362251,72.86965179,093212 72715,401107,Mira Bhayandar,Thane
Jalaram Medical Electronics,"03, Shri Datta Kripa Rahewasi Sangh, Rawal Pada, Near Western Highway, Dahisar East, Mumbai, Maharashtra 400068",https://www.bing.com/maps?cp=19.255722045898438%7E72.85963439941406&lvl=17.0&q=Jalaram%20Medical%20Electronics%20%2C%2003%2C%20Shri%20Datta%20Kripa%20Rahewasi%20Sangh%2C%20Rawal%20Pada%2C%20Near%20Western%20Highway%2C%20Dahisar%20East%2C%20Mumbai%2C%20Maharashtra%20400068,19.25572205,72.8596344,,400068,Dahisar,Mumbai
Salman Medcial & General Stores,"Neel Akash Ganga CHS LTD, Shop NO 01, Ground Floor, Laxmi Park, Naya Nagar, Mira Road, Thane, Maharashtra 401107",https://www.bing.com/maps?cp=19.286693572998047%7E72.8583984375&lvl=17.0&q=Salman%20Medcial%20%26%20General%20Stores%20%2C%20Neel%20Akash%20Ganga%20CHS%20LTD%2C%20Shop%20NO%2001%2C%20Ground%20Floor%2C%20Laxmi%20Park%2C%20Naya%20Nagar%2C%20Mira%20Road%2C%20Thane%2C%20Maharashtra%20401107,19.28669357,72.85839844,022 2810 0413,401107,Mira Bhayandar,Thane
Indrani Medical&General Store,"Poonam Shruti Building, Shop NO 12/ H-Wing, Latiff Park, OPP S K Stone, Mira-Bhayander-East, Thane, Maharashtra 401107",https://www.bing.com/maps?cp=19.286409378051758%7E72.8697738647461&lvl=17.0&q=Indrani%20Medical%26General%20Store%20%2C%20Poonam%20Shruti%20Building%2C%20Shop%20NO%2012%2F%20H-Wing%2C%20Latiff%20Park%2C%20OPP%20S%20K%20Stone%2C%20Mira-Bhayander-East%2C%20Thane%2C%20Maharashtra%20401107,19.28640938,72.86977386,093219 03174,401107,Mira Bhayandar,Thane
Smita Dental Clinic,"Shanti Nagar, Sector1, Bldg.no.B-42, 001, Near New India Co-op. Bank, Mira Road[east], Mumbai, Maharashtra 401107",https://www.bing.com/maps?cp=19.28139877319336%7E72.85940551757812&lvl=17.0&q=Smita%20Dental%20Clinic%20%2C%20Shanti%20Nagar%2C%20Sector1%2C%20Bldg.no.B-42%2C%20001%2C%20Near%20New%20India%20Co-op.%20Bank%2C%20Mira%20Road%5Beast%5D%2C%20Mumbai%2C%20Maharashtra%20401107,19.28139877,72.85940552,099871 16494,401107,Mira Bhayandar,Thane
Medicare Chemist and Druggiest,"Ostwal Paradise Bldg CHS LTD NO 3, 6, Ground Floor, NH School, Road Near Shivar Garden, Mira Road East, Thane, Maharashtra 401107",https://www.bing.com/maps?cp=19.27173614501953%7E72.87191009521484&lvl=17.0&q=Medicare%20Chemist%20and%20Druggiest%20%2C%20Ostwal%20Paradise%20Bldg%20CHS%20LTD%20NO%203%2C%206%2C%20Ground%20Floor%2C%20NH%20School%2C%20Road%20Near%20Shivar%20Garden%2C%20Mira%20Road%20East%2C%20Thane%2C%20Maharashtra%20401107,19.27173615,72.8719101,090290 56755,401107,Mira Bhayandar,Thane
Anjali Mukerjee Health Total,"Shop No. 13, Rashesh Building, Ground Floor, 150 Ft Road, Bhayandar West, Thane, Maharashtra 401101",https://www.bing.com/maps?cp=19.294301986694336%7E72.84210968017578&lvl=17.0&q=Anjali%20Mukerjee%20Health%20Total%20%2C%20Shop%20No.%2013%2C%20Rashesh%20Building%2C%20Ground%20Floor%2C%20150%20Ft%20Road%2C%20Bhayandar%20West%2C%20Thane%2C%20Maharashtra%20401101,19.29430199,72.84210968,022 6529 6798,401101,Mira Bhayandar,Thane
Tayyab Unani&Hijama Medical,"2, Naya Nagar Police Station, Mira Road East, Mumbai, Maharashtra 401107",https://www.bing.com/maps?cp=19.283977508544922%7E72.85638427734375&lvl=17.0&q=Tayyab%20Unani%26Hijama%20Medical%20%2C%202%2C%20Naya%20Nagar%20Police%20Station%2C%20Mira%20Road%20East%2C%20Mumbai%2C%20Maharashtra%20401107,19.28397751,72.85638428,099674 67976,401107,Mira Bhayandar,Thane
Pranami Medical and General Store,"Mira Road, Thane, Maharashtra 401107",https://www.bing.com/maps?cp=19.286348342895508%7E72.85831451416016&lvl=17.0&q=Pranami%20Medical%20and%20General%20Store%20%2C%20Mira%20Road%2C%20Thane%2C%20Maharashtra%20401107,19.28634834,72.85831451,098337 42246,401107,Mira Bhayandar,Thane
Sameer Medical General Store,"Shop no.4, Haji Usuf Manzil Bldg, Near Centuary Park, Miraroad East 401107",https://www.bing.com/maps?cp=19.28916358947754%7E72.85652923583984&lvl=17.0&q=Sameer%20Medical%20General%20Store%20%2C%20Shop%20no.4%2C%20Haji%20Usuf%20Manzil%20Bldg%2C%20Near%20Centuary%20Park%2C%20Miraroad%20East%20401107,19.28916359,72.85652924,086928 79707,401107,Mira Bhayandar,Thane
New Rabbani Medical Store,"Ruby Apartment, Shop Wing-B, Mira Bhayander Road East, Near, Garden, OPP Petrol Pump, Thane, Maharashtra 401107",https://www.bing.com/maps?cp=19.285730361938477%7E72.86920166015625&lvl=17.0&q=New%20Rabbani%20Medical%20Store%20%2C%20Ruby%20Apartment%2C%20Shop%20Wing-B%2C%20Mira%20Bhayander%20Road%20East%2C%20Near%2C%20Garden%2C%20OPP%20Petrol%20Pump%2C%20Thane%2C%20Maharashtra%20401107,19.28573036,72.86920166,,401107,Mira Bhayandar,Thane
Sanggvi Medical Store,"D\ 1, Shop No. 11, Sonam Ganga Building, Golden Nest Phase 6, Mira Road East, Bhaindar West, Thane, Maharashtra 401105",https://www.bing.com/maps?cp=19.29579734802246%7E72.86143493652344&lvl=17.0&q=Sanggvi%20Medical%20Store%20%2C%20D%5C%201%2C%20Shop%20No.%2011%2C%20Sonam%20Ganga%20Building%2C%20Golden%20Nest%20Phase%206%2C%20Mira%20Road%20East%2C%20Bhaindar%20West%2C%20Thane%2C%20Maharashtra%20401105,19.29579735,72.86143494,,401105,Mira Bhayandar,Thane
Saifee Healthcare,"Shop No - D/5, Nurejmal Building, Siddhivinayak Marg, Bhayander (W), Maharashtra 401101",https://www.bing.com/maps?cp=19.29975128173828%7E72.84686279296875&lvl=17.0&q=Saifee%20Healthcare%20%2C%20Shop%20No%20-%20D%2F5%2C%20Nurejmal%20Building%2C%20Siddhivinayak%20Marg%2C%20Bhayander%20(W)%2C%20Maharashtra%20401101,19.29975128,72.84686279,079000 97290,401101,Mira Bhayandar,Thane
Nagneshi Medical,"Bhayandar East, Thane, Maharashtra 401105",https://www.bing.com/maps?cp=19.295608520507812%7E72.85773468017578&lvl=17.0&q=Nagneshi%20Medical%20%2C%20Bhayandar%20East%2C%20Thane%2C%20Maharashtra%20401105,19.29560852,72.85773468,098679 59882,401105,Mira Bhayandar,Thane
Ram Medical,"Meera Road, Mumbai, Mumbai 401107",https://www.bing.com/maps?cp=19.28504180908203%7E72.86750793457031&lvl=17.0&q=Ram%20Medical%20%2C%20Meera%20Road%2C%20Mumbai%2C%20Mumbai%20401107,19.28504181,72.86750793,022 2811 9065,401107,Mira Bhayandar,Thane
Bilkis Clinic,"8, Mira Road East, Mumbai, Maharashtra 401107",https://www.bing.com/maps?cp=19.284290313720703%7E72.85924530029297&lvl=17.0&q=Bilkis%20Clinic%20%2C%208%2C%20Mira%20Road%20East%2C%20Mumbai%2C%20Maharashtra%20401107,19.28429031,72.8592453,090224 37654,401107,Mira Bhayandar,Thane
Kamla Clinic,"Uttan Road, Mumbai, Maharashtra 401101",https://www.bing.com/maps?cp=19.307125091552734%7E72.84768676757812&lvl=17.0&q=Kamla%20Clinic%20%2C%20Uttan%20Road%2C%20Mumbai%2C%20Maharashtra%20401101,19.30712509,72.84768677,,401101,Mira Bhayandar,Thane
Suresh Medical,"1, New Milan Apartment, Shetha Shree Devchand Jethalal Sanghavi Road, Mumbai, Maharashtra 401101",https://www.bing.com/maps?cp=19.304405212402344%7E72.85175323486328&lvl=17.0&q=Suresh%20Medical%20%2C%201%2C%20New%20Milan%20Apartment%2C%20Shetha%20Shree%20Devchand%20Jethalal%20Sanghavi%20Road%2C%20Mumbai%2C%20Maharashtra%20401101,19.30440521,72.85175323,,401101,Mira Bhayandar,Thane
Shree Medical Store,"Sector 10, Thane, Maharashtra 401107",https://www.bing.com/maps?cp=19.27635383605957%7E72.86040496826172&lvl=17.0&q=Shree%20Medical%20Store%20%2C%20Sector%2010%2C%20Thane%2C%20Maharashtra%20401107,19.27635384,72.86040497,090228 50072,401107,Mira Bhayandar,Thane
Panchmukhi Medical and General Stores,"Shop NO.4 A -Wing, Golden CITY Complex Haria Park Road, Thane, Maharashtra 401107",https://www.bing.com/maps?cp=19.294620513916016%7E72.861572265625&lvl=17.0&q=Panchmukhi%20Medical%20and%20General%20Stores%20%2C%20Shop%20NO.4%20A%20-Wing%2C%20Golden%20CITY%20Complex%20Haria%20Park%20Road%2C%20Thane%2C%20Maharashtra%20401107,19.29462051,72.86157227,099309 41984,401107,Mira Bhayandar,Thane
Ambaji Medical&General Store,"Shop No-07, Poonam Sagar Complex, Builing No L2-45/46, Opp Shanti Nagar, Sec-9, Meera Road East, Thane, Maharashtra 401101",https://www.bing.com/maps?cp=19.277206420898438%7E72.86223602294922&lvl=17.0&q=Ambaji%20Medical%26General%20Store%20%2C%20Shop%20No-07%2C%20Poonam%20Sagar%20Complex%2C%20Builing%20No%20L2-45%2F46%2C%20Opp%20Shanti%20Nagar%2C%20Sec-9%2C%20Meera%20Road%20East%2C%20Thane%2C%20Maharashtra%20401101,19.27720642,72.86223602,098672 15864,401101,Mira Bhayandar,Thane
National Medical Stores,"NEW Abhay APT CHS LTD, B-1, Narayan Nagar, Bhayandar West, Thane, Maharashtra 401101",https://www.bing.com/maps?cp=19.304855346679688%7E72.84815216064453&lvl=17.0&q=National%20Medical%20Stores%20%2C%20NEW%20Abhay%20APT%20CHS%20LTD%2C%20B-1%2C%20Narayan%20Nagar%2C%20Bhayandar%20West%2C%20Thane%2C%20Maharashtra%20401101,19.30485535,72.84815216,,401101,Mira Bhayandar,Thane
Vinayak Medical Store,"Bldg NO 94-95, Shop NO 06, Poonam Complex CHS, Shanti Park, Mira Road East, Thane, Maharashtra 401107",https://www.bing.com/maps?cp=19.27779197692871%7E72.86912536621094&lvl=17.0&q=Vinayak%20Medical%20Store%20%2C%20Bldg%20NO%2094-95%2C%20Shop%20NO%2006%2C%20Poonam%20Complex%20CHS%2C%20Shanti%20Park%2C%20Mira%20Road%20East%2C%20Thane%2C%20Maharashtra%20401107,19.27779198,72.86912537,080801 07398,401107,Mira Bhayandar,Thane
Maruti Medical Store,"Shanti Jyoti, Station Road, Bhayandar, Mumbai, Maharashtra 401101",https://www.bing.com/maps?cp=19.309894561767578%7E72.85102844238281&lvl=17.0&q=Maruti%20Medical%20Store%20%2C%20Shanti%20Jyoti%2C%20Station%20Road%2C%20Bhayandar%2C%20Mumbai%2C%20Maharashtra%20401101,19.30989456,72.85102844,099873 86680,401101,Mira Bhayandar,Thane
Raj Chemist Medical & General Stores,"Sana APT, SH 4 Wing B, Ground Floor, OPP TO Kurnal Shopping, Centre, Naya Nagar, Mira Road, Thane, Maharashtra 401107",https://www.bing.com/maps?cp=19.28508949279785%7E72.85676574707031&lvl=17.0&q=Raj%20Chemist%20Medical%20%26%20General%20Stores%20%2C%20Sana%20APT%2C%20SH%204%20Wing%20B%2C%20Ground%20Floor%2C%20OPP%20TO%20Kurnal%20Shopping%2C%20Centre%2C%20Naya%20Nagar%2C%20Mira%20Road%2C%20Thane%2C%20Maharashtra%20401107,19.28508949,72.85676575,,401107,Mira Bhayandar,Thane
Deepak Medical General Store,"Balaji Nagar, Bhiwandi, Mumbai, Maharashtra 401105",https://www.bing.com/maps?cp=19.30948829650879%7E72.85132598876953&lvl=17.0&q=Deepak%20Medical%20General%20Store%20%2C%20Balaji%20Nagar%2C%20Bhiwandi%2C%20Mumbai%2C%20Maharashtra%20401105,19.3094883,72.85132599,093245 12657,401105,Mira Bhayandar,Thane
Dhanvanti Clinic,"Bhayandar Shopping Centre, Sh42, Bhayander West, Mumbai, Maharashtra 401101",https://www.bing.com/maps?cp=19.30057144165039%7E72.8469467163086&lvl=17.0&q=Dhanvanti%20Clinic%20%2C%20Bhayandar%20Shopping%20Centre%2C%20Sh42%2C%20Bhayander%20West%2C%20Mumbai%2C%20Maharashtra%20401101,19.30057144,72.84694672,,401101,Mira Bhayandar,Thane
A To Z Medical,"Lodha Road, Mira Road East, Mumbai, Maharashtra 401107",https://www.bing.com/maps?cp=19.288148880004883%7E72.85775756835938&lvl=17.0&q=A%20To%20Z%20Medical%20%2C%20Lodha%20Road%2C%20Mira%20Road%20East%2C%20Mumbai%2C%20Maharashtra%20401107,19.28814888,72.85775757,,401107,Mira Bhayandar,Thane
Supreme Medical and General Store,"Vidhata CHS LTD, Shop NO 7, Golden Nest Phase 3, Mira Bhayandee, RD, Thane, Maharashtra 401105",https://www.bing.com/maps?cp=19.294099807739258%7E72.86087036132812&lvl=17.0&q=Supreme%20Medical%20and%20General%20Store%20%2C%20Vidhata%20CHS%20LTD%2C%20Shop%20NO%207%2C%20Golden%20Nest%20Phase%203%2C%20Mira%20Bhayandee%2C%20RD%2C%20Thane%2C%20Maharashtra%20401105,19.29409981,72.86087036,022 2811 8457,401105,Mira Bhayandar,Thane
Gurukripa Medical,"Sukh Sagar APT, Shop NO 2-A Wing, Goddeo Naka, Phatak RD, Bhayandar East, Thane, Maharashtra 401107",https://www.bing.com/maps?cp=19.303436279296875%7E72.85816955566406&lvl=17.0&q=Gurukripa%20Medical%20%2C%20Sukh%20Sagar%20APT%2C%20Shop%20NO%202-A%20Wing%2C%20Goddeo%20Naka%2C%20Phatak%20RD%2C%20Bhayandar%20East%2C%20Thane%2C%20Maharashtra%20401107,19.30343628,72.85816956,077384 79611,401107,Mira Bhayandar,Thane
Kasturi Group of Hospital,"Kamla Park, Fatak Road, Thane, Maharashtra 401101",https://www.bing.com/maps?cp=19.299705505371094%7E72.85182189941406&lvl=17.0&q=Kasturi%20Group%20of%20Hospital%20%2C%20Kamla%20Park%2C%20Fatak%20Road%2C%20Thane%2C%20Maharashtra%20401101,19.29970551,72.8518219,087679 97676,401101,Mira Bhayandar,Thane
Gurudev Medical,"Shiv Ashirwad CHS LTD, a-02, Shiv Shrushti Complex RNP Park, Bhayander East, Thane, Maharashtra 401105",https://www.bing.com/maps?cp=19.309114456176758%7E72.86003875732422&lvl=17.0&q=Gurudev%20Medical%20%2C%20Shiv%20Ashirwad%20CHS%20LTD%2C%20a-02%2C%20Shiv%20Shrushti%20Complex%20RNP%20Park%2C%20Bhayander%20East%2C%20Thane%2C%20Maharashtra%20401105,19.30911446,72.86003876,,401105,Mira Bhayandar,Thane
Sagar Medical & General Stores,"SAI Jyot, Shop NO 5, Cabin Road, Bhayander East, Thane, Maharashtra 401105",https://www.bing.com/maps?cp=19.308460235595703%7E72.8532485961914&lvl=17.0&q=Sagar%20Medical%20%26%20General%20Stores%20%2C%20SAI%20Jyot%2C%20Shop%20NO%205%2C%20Cabin%20Road%2C%20Bhayander%20East%2C%20Thane%2C%20Maharashtra%20401105,19.30846024,72.8532486,022 2814 6805,401105,Mira Bhayandar,Thane
Pooja Medical and General Store,"Shop NO.09, Shiv Complex, Narmada Nagar, Bhayandar, Cabin Cross Road, Bhayandar East, Thane, Maharashtra 401105",https://www.bing.com/maps?cp=19.30361557006836%7E72.85507202148438&lvl=17.0&q=Pooja%20Medical%20and%20General%20Store%20%2C%20Shop%20NO.09%2C%20Shiv%20Complex%2C%20Narmada%20Nagar%2C%20Bhayandar%2C%20Cabin%20Cross%20Road%2C%20Bhayandar%20East%2C%20Thane%2C%20Maharashtra%20401105,19.30361557,72.85507202,081089 72712,401105,Mira Bhayandar,Thane
Dr Narendra Hospital,"Kashmira Road, Bhayandar West, Mumbai, Maharashtra 401101",https://www.bing.com/maps?cp=19.29949378967285%7E72.84874725341797&lvl=17.0&q=Dr%20Narendra%20Hospital%20%2C%20Kashmira%20Road%2C%20Bhayandar%20West%2C%20Mumbai%2C%20Maharashtra%20401101,19.29949379,72.84874725,,401101,Mira Bhayandar,Thane
Mehta Medical & General Store,"Bhayandar West, Thane, Maharashtra 401101",https://www.bing.com/maps?cp=19.30735206604004%7E72.84813690185547&lvl=17.0&q=Mehta%20Medical%20%26%20General%20Store%20%2C%20Bhayandar%20West%2C%20Thane%2C%20Maharashtra%20401101,19.30735207,72.8481369,,401101,Mira Bhayandar,Thane
Sriyash Clinic,"Mittal Court, Hari Harayan Asawa Marg, Bhayander West, Mumbai, Maharashtra 401101",https://www.bing.com/maps?cp=19.298444747924805%7E72.85111999511719&lvl=17.0&q=Sriyash%20Clinic%20%2C%20Mittal%20Court%2C%20Hari%20Harayan%20Asawa%20Marg%2C%20Bhayander%20West%2C%20Mumbai%2C%20Maharashtra%20401101,19.29844475,72.85112,,401101,Mira Bhayandar,Thane
Bhawani Medical and General Stores,"D/115 Shreedham Apartmen, Bhyander East 32, Thane, Maharashtra 401105",https://www.bing.com/maps?cp=19.30548667907715%7E72.86194610595703&lvl=17.0&q=Bhawani%20Medical%20and%20General%20Stores%20%2C%20D%2F115%20Shreedham%20Apartmen%2C%20Bhyander%20East%2032%2C%20Thane%2C%20Maharashtra%20401105,19.30548668,72.86194611,098924 54036,401105,Mira Bhayandar,Thane
Shree Sanjivani Medical,"Jesal Park Road, Bank Of Baroda, Bhayandar East, Mumbai, Maharashtra 401105",https://www.bing.com/maps?cp=19.31403160095215%7E72.85555267333984&lvl=17.0&q=Shree%20Sanjivani%20Medical%20%2C%20Jesal%20Park%20Road%2C%20Bank%20Of%20Baroda%2C%20Bhayandar%20East%2C%20Mumbai%2C%20Maharashtra%20401105,19.3140316,72.85555267,099670 59759,401105,Mira Bhayandar,Thane
Nakoda Hospital,"E Wing Dev Chs, 14 Nageshwar Nagar Road, Thane, Maharashtra 401101",https://www.bing.com/maps?cp=19.307064056396484%7E72.84746551513672&lvl=17.0&q=Nakoda%20Hospital%20%2C%20E%20Wing%20Dev%20Chs%2C%2014%20Nageshwar%20Nagar%20Road%2C%20Thane%2C%20Maharashtra%20401101,19.30706406,72.84746552,022 2819 2046,401101,Mira Bhayandar,Thane
Priya Clinic,"Sv Road, Holy Cross High School, Bhayandar East, Mumbai, Maharashtra 401105",https://www.bing.com/maps?cp=19.314252853393555%7E72.85887145996094&lvl=17.0&q=Priya%20Clinic%20%2C%20Sv%20Road%2C%20Holy%20Cross%20High%20School%2C%20Bhayandar%20East%2C%20Mumbai%2C%20Maharashtra%20401105,19.31425285,72.85887146,095953 56385,401105,Mira Bhayandar,Thane
Balaji Clinic,"Nav Ghar Road, Mumbai, Maharashtra 401105",https://www.bing.com/maps?cp=19.305082321166992%7E72.86111450195312&lvl=17.0&q=Balaji%20Clinic%20%2C%20Nav%20Ghar%20Road%2C%20Mumbai%2C%20Maharashtra%20401105,19.30508232,72.8611145,092203 43905,401105,Mira Bhayandar,Thane
Dr.Smita Joshi Clinic,"Excellency Chs Wing-A/b, Pk Road, Mira Bhayandar, Mumbai, Maharashtra 401105",https://www.bing.com/maps?cp=19.315654754638672%7E72.85548400878906&lvl=17.0&q=Dr.Smita%20Joshi%20Clinic%20%2C%20Excellency%20Chs%20Wing-A%2Fb%2C%20Pk%20Road%2C%20Mira%20Bhayandar%2C%20Mumbai%2C%20Maharashtra%20401105,19.31565475,72.85548401,,401105,Mira Bhayandar,Thane
Mathadi Hospital Trust,"Navghar Road, Mira Bhayandar 401105",https://www.bing.com/maps?cp=19.31231117248535%7E72.85346221923828&lvl=17.0&q=Mathadi%20Hospital%20Trust%20%2C%20Navghar%20Road%2C%20Mira%20Bhayandar%20401105,19.31231117,72.85346222,022 2754 1266,401105,Mira Bhayandar,Thane
Sai Krupa Stores,"Shop No.10, Garden View Building, Narayan Nagar, Bhayandar, Thane, Maharashtra 401101",https://www.bing.com/maps?cp=19.30742645263672%7E72.85250854492188&lvl=17.0&q=Sai%20Krupa%20Stores%20%2C%20Shop%20No.10%2C%20Garden%20View%20Building%2C%20Narayan%20Nagar%2C%20Bhayandar%2C%20Thane%2C%20Maharashtra%20401101,19.30742645,72.85250854,097024 49814,401101,Mira Bhayandar,Thane
Vision Biomedicals,"Shop No. 10, Shraddha CHS, Swagatam Complex, Jesal Park, Thane, Maharashtra 401105",https://www.bing.com/maps?cp=19.3171329498291%7E72.85442352294922&lvl=17.0&q=Vision%20Biomedicals%20%2C%20Shop%20No.%2010%2C%20Shraddha%20CHS%2C%20Swagatam%20Complex%2C%20Jesal%20Park%2C%20Thane%2C%20Maharashtra%20401105,19.31713295,72.85442352,098204 65276,401105,Mira Bhayandar,Thane
Ramkrishna Medical & General Stores,"Sai Aashirwad Bldg, Shop NO 3, Ground Floor, B P Road, Bhyander, Thane, Maharashtra 401105",https://www.bing.com/maps?cp=19.311939239501953%7E72.85704040527344&lvl=17.0&q=Ramkrishna%20Medical%20%26%20General%20Stores%20%2C%20Sai%20Aashirwad%20Bldg%2C%20Shop%20NO%203%2C%20Ground%20Floor%2C%20B%20P%20Road%2C%20Bhyander%2C%20Thane%2C%20Maharashtra%20401105,19.31193924,72.85704041,022 2804 3536,401105,Mira Bhayandar,Thane
Chintamani Clinic,"Father Joseps English Medium School, Bhayandar East, Mumbai, Maharashtra 401105",https://www.bing.com/maps?cp=19.311609268188477%7E72.85750579833984&lvl=17.0&q=Chintamani%20Clinic%20%2C%20Father%20Joseps%20English%20Medium%20School%2C%20Bhayandar%20East%2C%20Mumbai%2C%20Maharashtra%20401105,19.31160927,72.8575058,,401105,Mira Bhayandar,Thane
Jay Clinic,"Jesal Park Road, Mother Marys English High School, Bhayandar East, Mumbai, Maharashtra 401105",https://www.bing.com/maps?cp=19.314586639404297%7E72.85784912109375&lvl=17.0&q=Jay%20Clinic%20%2C%20Jesal%20Park%20Road%2C%20Mother%20Marys%20English%20High%20School%2C%20Bhayandar%20East%2C%20Mumbai%2C%20Maharashtra%20401105,19.31458664,72.85784912,,401105,Mira Bhayandar,Thane
Navdurga Medical & General Store,"New Manish Co-Operative Housing Society, Navghar Road, Thane, Maharashtra 401105",https://www.bing.com/maps?cp=19.3068790435791%7E72.8626937866211&lvl=17.0&q=Navdurga%20Medical%20%26%20General%20Store%20%2C%20New%20Manish%20Co-Operative%20Housing%20Society%2C%20Navghar%20Road%2C%20Thane%2C%20Maharashtra%20401105,19.30687904,72.86269379,022 6953 4200,401105,Mira Bhayandar,Thane
Samarth Sai Dental Clinic,"1ST-9, Ostwal Shopping Centre, Corner OF Jesal Park, ST RD, Bhaindar Mumbai, Thane, Maharashtra 401107",https://www.bing.com/maps?cp=19.3128604888916%7E72.85314178466797&lvl=17.0&q=Samarth%20Sai%20Dental%20Clinic%20%2C%201ST-9%2C%20Ostwal%20Shopping%20Centre%2C%20Corner%20OF%20Jesal%20Park%2C%20ST%20RD%2C%20Bhaindar%20Mumbai%2C%20Thane%2C%20Maharashtra%20401107,19.31286049,72.85314178,094053 23132,401107,Mira Bhayandar,Thane
PUSHPA CLINIC,"Sai Ashirwad Hospital, Bhayandar East, Mumbai, Maharashtra 401105",https://www.bing.com/maps?cp=19.308895111083984%7E72.85958099365234&lvl=17.0&q=PUSHPA%20CLINIC%20%2C%20Sai%20Ashirwad%20Hospital%2C%20Bhayandar%20East%2C%20Mumbai%2C%20Maharashtra%20401105,19.30889511,72.85958099,,401105,Mira Bhayandar,Thane
Shubham Hospital,"Sheetal Niketan Tower, Bhayander(e), Thane, Maharashtra 401105",https://www.bing.com/maps?cp=19.311161041259766%7E72.85950469970703&lvl=17.0&q=Shubham%20Hospital%20%2C%20Sheetal%20Niketan%20Tower%2C%20Bhayander(e)%2C%20Thane%2C%20Maharashtra%20401105,19.31116104,72.8595047,022 2819 5144,401105,Mira Bhayandar,Thane
Shree Samarth Clinic,"Navghar Village, Bhayandar East, Mumbai, Maharashtra 401105",https://www.bing.com/maps?cp=19.30661392211914%7E72.86434173583984&lvl=17.0&q=Shree%20Samarth%20Clinic%20%2C%20Navghar%20Village%2C%20Bhayandar%20East%2C%20Mumbai%2C%20Maharashtra%20401105,19.30661392,72.86434174,098922 66983,401105,Mira Bhayandar,Thane
Dr Chandra Prakash Clinic,"Navghar Rd, Sai Ashirwad Hospital, Bhayandar Nagar Mira Bhayandar East, Mumbai, Maharashtra 401101",https://www.bing.com/maps?cp=19.309724807739258%7E72.85852813720703&lvl=17.0&q=Dr%20Chandra%20Prakash%20Clinic%20%2C%20Navghar%20Rd%2C%20Sai%20Ashirwad%20Hospital%2C%20Bhayandar%20Nagar%20Mira%20Bhayandar%20East%2C%20Mumbai%2C%20Maharashtra%20401101,19.30972481,72.85852814,,401101,Mira Bhayandar,Thane
Pradhan Healthcare,"Ostwal Ornate, 36-A Ground, Ground Floor, Jesal Park, Bhayandar-East, Thane, Maharashtra 401105",https://www.bing.com/maps?cp=19.313045501708984%7E72.85337829589844&lvl=17.0&q=Pradhan%20Healthcare%20%2C%20Ostwal%20Ornate%2C%2036-A%20Ground%2C%20Ground%20Floor%2C%20Jesal%20Park%2C%20Bhayandar-East%2C%20Thane%2C%20Maharashtra%20401105,19.3130455,72.8533783,,401105,Mira Bhayandar,Thane
Asha Medical Store,"Shreedham Bldg CHS LTD, Shop NO 01, A Wing GRD Floor, Navghar Road, Bhayander East, Thane, Maharashtra 401105",https://www.bing.com/maps?cp=19.309289932250977%7E72.86260986328125&lvl=17.0&q=Asha%20Medical%20Store%20%2C%20Shreedham%20Bldg%20CHS%20LTD%2C%20Shop%20NO%2001%2C%20A%20Wing%20GRD%20Floor%2C%20Navghar%20Road%2C%20Bhayander%20East%2C%20Thane%2C%20Maharashtra%20401105,19.30928993,72.86260986,,401105,Mira Bhayandar,Thane
Shree Krishna Medical Store,"Navghar Road, Om Swami Vivekanand High School, Bhayandar East, Mumbai, Maharashtra 401105",https://www.bing.com/maps?cp=19.306482315063477%7E72.86410522460938&lvl=17.0&q=Shree%20Krishna%20Medical%20Store%20%2C%20Navghar%20Road%2C%20Om%20Swami%20Vivekanand%20High%20School%2C%20Bhayandar%20East%2C%20Mumbai%2C%20Maharashtra%20401105,19.30648232,72.86410522,,401105,Mira Bhayandar,Thane
Amogh Multispeciality Clinic,"Shop No 3, Sai Ram Darshan, Sai Baba Nagar, Navghar Road, Bhayandar, Bhayandar East, Thane, Maharashtra 401105",https://www.bing.com/maps?cp=19.311702728271484%7E72.86043548583984&lvl=17.0&q=Amogh%20Multispeciality%20Clinic%20%2C%20Shop%20No%203%2C%20Sai%20Ram%20Darshan%2C%20Sai%20Baba%20Nagar%2C%20Navghar%20Road%2C%20Bhayandar%2C%20Bhayandar%20East%2C%20Thane%2C%20Maharashtra%20401105,19.31170273,72.86043549,086028 63288,401105,Mira Bhayandar,Thane
Asha Maternity Hospital,"Bashikali Nagar Building, 2 Off Navghar Road, Thane, Maharashtra 401105",https://www.bing.com/maps?cp=19.308931350708008%7E72.86320495605469&lvl=17.0&q=Asha%20Maternity%20Hospital%20%2C%20Bashikali%20Nagar%20Building%2C%202%20Off%20Navghar%20Road%2C%20Thane%2C%20Maharashtra%20401105,19.30893135,72.86320496,022 2816 2395,401105,Mira Bhayandar,Thane
Neel Clinic,"Navghar Road, Vidyasagar International School, Bhayandar East, Mumbai, Maharashtra 401105",https://www.bing.com/maps?cp=19.309955596923828%7E72.8582763671875&lvl=17.0&q=Neel%20Clinic%20%2C%20Navghar%20Road%2C%20Vidyasagar%20International%20School%2C%20Bhayandar%20East%2C%20Mumbai%2C%20Maharashtra%20401105,19.3099556,72.85827637,099304 72146,401105,Mira Bhayandar,Thane
Samrat Healthcare,"A103, Aradhana, Bhayander, Navghar Road, Thane, Maharashtra 401105",https://www.bing.com/maps?cp=19.311992645263672%7E72.85430908203125&lvl=17.0&q=Samrat%20Healthcare%20%2C%20A103%2C%20Aradhana%2C%20Bhayander%2C%20Navghar%20Road%2C%20Thane%2C%20Maharashtra%20401105,19.31199265,72.85430908,080 4837 2598,401105,Mira Bhayandar,Thane
Dr Vijay B Modha Clinic,"Ghoddev Navghar Road, Thane, Maharashtra 401105",https://www.bing.com/maps?cp=19.304672241210938%7E72.85945129394531&lvl=17.0&q=Dr%20Vijay%20B%20Modha%20Clinic%20%2C%20Ghoddev%20Navghar%20Road%2C%20Thane%2C%20Maharashtra%20401105,19.30467224,72.85945129,098339 50223,401105,Mira Bhayandar,Thane
Cure & Care Enterprises,"Mahadev Nagar, 101 Building no 03, Navghar Road, Bhayandar East, Thane, Maharashtra 401105",https://www.bing.com/maps?cp=19.313180923461914%7E72.85733795166016&lvl=17.0&q=Cure%20%26%20Care%20Enterprises%20%2C%20Mahadev%20Nagar%2C%20101%20Building%20no%2003%2C%20Navghar%20Road%2C%20Bhayandar%20East%2C%20Thane%2C%20Maharashtra%20401105,19.31318092,72.85733795,,401105,Mira Bhayandar,Thane
Dr Anil Om Shah,"90 Feet Road, Padmawati Complex, Venkatesh Park, Mumbai, Maharashtra 401101",https://www.bing.com/maps?cp=19.30824089050293%7E72.85111999511719&lvl=17.0&q=Dr%20Anil%20Om%20Shah%20%2C%2090%20Feet%20Road%2C%20Padmawati%20Complex%2C%20Venkatesh%20Park%2C%20Mumbai%2C%20Maharashtra%20401101,19.30824089,72.85112,,401101,Mira Bhayandar,Thane
Santosh Clinic,"Sai Vedant Multi Speciality Hospital, Bhayandar East, Mumbai, Maharashtra 401105",https://www.bing.com/maps?cp=19.304248809814453%7E72.85458374023438&lvl=17.0&q=Santosh%20Clinic%20%2C%20Sai%20Vedant%20Multi%20Speciality%20Hospital%2C%20Bhayandar%20East%2C%20Mumbai%2C%20Maharashtra%20401105,19.30424881,72.85458374,,401105,Mira Bhayandar,Thane
Kothari Clinic,"11, Meena Bazar, Chandulal Park, Near Nazreth English School, Station Road, Bhayander West, Thane, Maharashtra 401101",https://www.bing.com/maps?cp=19.30733871459961%7E72.84986877441406&lvl=17.0&q=Kothari%20Clinic%20%2C%2011%2C%20Meena%20Bazar%2C%20Chandulal%20Park%2C%20Near%20Nazreth%20English%20School%2C%20Station%20Road%2C%20Bhayander%20West%2C%20Thane%2C%20Maharashtra%20401101,19.30733871,72.84986877,,401101,Mira Bhayandar,Thane
Shivkrupa Pathology Laboratory,"5, Gajanan Prasanna CO OP HSG SOC LTD, Bhayander, OPP Police Station, Near ICE Factory, Bhayander West, Thane, Maharashtra 401101",https://www.bing.com/maps?cp=19.303865432739258%7E72.84994506835938&lvl=17.0&q=Shivkrupa%20Pathology%20Laboratory%20%2C%205%2C%20Gajanan%20Prasanna%20CO%20OP%20HSG%20SOC%20LTD%2C%20Bhayander%2C%20OPP%20Police%20Station%2C%20Near%20ICE%20Factory%2C%20Bhayander%20West%2C%20Thane%2C%20Maharashtra%20401101,19.30386543,72.84994507,080977 68441,401101,Mira Bhayandar,Thane
Omkar Enterprises,"B- 101, Rajvi Palace, Indralok Phash 3, Bhayndar, Indralok Road, Bhayndar East, Thane, Maharashtra 401105",https://www.bing.com/maps?cp=19.304441452026367%7E72.86028289794922&lvl=17.0&q=Omkar%20Enterprises%20%2C%20B-%20101%2C%20Rajvi%20Palace%2C%20Indralok%20Phash%203%2C%20Bhayndar%2C%20Indralok%20Road%2C%20Bhayndar%20East%2C%20Thane%2C%20Maharashtra%20401105,19.30444145,72.8602829,022 2819 9282,401105,Mira Bhayandar,Thane
Shrey Clinic,"Prabhakar Mhatre Road, Don Bosco Public High School, Bhayandar East, Mumbai, Maharashtra 401105",https://www.bing.com/maps?cp=19.301599502563477%7E72.86148071289062&lvl=17.0&q=Shrey%20Clinic%20%2C%20Prabhakar%20Mhatre%20Road%2C%20Don%20Bosco%20Public%20High%20School%2C%20Bhayandar%20East%2C%20Mumbai%2C%20Maharashtra%20401105,19.3015995,72.86148071,099698 51577,401105,Mira Bhayandar,Thane
Krishna Medical,"Ramdev Park Road, Thane, Maharashtra 401107",https://www.bing.com/maps?cp=19.296428680419922%7E72.86829376220703&lvl=17.0&q=Krishna%20Medical%20%2C%20Ramdev%20Park%20Road%2C%20Thane%2C%20Maharashtra%20401107,19.29642868,72.86829376,076780 02196,401107,Mira Bhayandar,Thane
Shivkrupa Medical,"Shree Shanti Ganga CHS LTD, Shop NO C/9, Ground Floor, Bunderwadi Road, OPP Railway Station, Bhayander East, Thane, Maharashtra 401105",https://www.bing.com/maps?cp=19.296371459960938%7E72.87368774414062&lvl=17.0&q=Shivkrupa%20Medical%20%2C%20Shree%20Shanti%20Ganga%20CHS%20LTD%2C%20Shop%20NO%20C%2F9%2C%20Ground%20Floor%2C%20Bunderwadi%20Road%2C%20OPP%20Railway%20Station%2C%20Bhayander%20East%2C%20Thane%2C%20Maharashtra%20401105,19.29637146,72.87368774,,401105,Mira Bhayandar,Thane
Shree Rishi Medical,"Shop Number 12/b, Golden Fleece Queen's Park, Mira Bhayandar Rd, Mumbai, Maharashtra 401107",https://www.bing.com/maps?cp=19.291122436523438%7E72.86302185058594&lvl=17.0&q=Shree%20Rishi%20Medical%20%2C%20Shop%20Number%2012%2Fb%2C%20Golden%20Fleece%20Queen's%20Park%2C%20Mira%20Bhayandar%20Rd%2C%20Mumbai%2C%20Maharashtra%20401107,19.29112244,72.86302185,0251 255 2939,401107,Mira Bhayandar,Thane
Sri METRO MEDICAL&General Store,"Ramdev Park Road, Hindustan Bank Atm, Mira Road, Mumbai, Maharashtra 401107",https://www.bing.com/maps?cp=19.295330047607422%7E72.86893463134766&lvl=17.0&q=Sri%20METRO%20MEDICAL%26General%20Store%20%2C%20Ramdev%20Park%20Road%2C%20Hindustan%20Bank%20Atm%2C%20Mira%20Road%2C%20Mumbai%2C%20Maharashtra%20401107,19.29533005,72.86893463,,401107,Mira Bhayandar,Thane
Fayth Clinic,"Shop No 6, Salasar Tulip Chsl, Salasar Garden Complex, Before GCC Club, Hatkesh, Mira Road East, Dist, Thane 401107",https://www.bing.com/maps?cp=19.28237533569336%7E72.87709045410156&lvl=17.0&q=Fayth%20Clinic%20%2C%20Shop%20No%206%2C%20Salasar%20Tulip%20Chsl%2C%20Salasar%20Garden%20Complex%2C%20Before%20GCC%20Club%2C%20Hatkesh%2C%20Mira%20Road%20East%2C%20Dist%2C%20Thane%20401107,19.28237534,72.87709045,022 2810 0257,401107,Mira Bhayandar,Thane
Adalbert Healthcare Private Limited,"Unit G002, Building NO 5, Solitaire 1, Poonam Garden, Mira Road, Thane, Maharashtra 401107",https://www.bing.com/maps?cp=19.290502548217773%7E72.87339782714844&lvl=17.0&q=Adalbert%20Healthcare%20Private%20Limited%20%2C%20Unit%20G002%2C%20Building%20NO%205%2C%20Solitaire%201%2C%20Poonam%20Garden%2C%20Mira%20Road%2C%20Thane%2C%20Maharashtra%20401107,19.29050255,72.87339783,,401107,Mira Bhayandar,Thane
Surya Medical Store,"ETC Akruti Gardenia Phase-2, Shop NO 18, Building NO-13, Ground, Floor, Near CCG Club Near Silver Park, Mira Road, Thane, Maharashtra 401107",https://www.bing.com/maps?cp=19.285219192504883%7E72.87682342529297&lvl=17.0&q=Surya%20Medical%20Store%20%2C%20ETC%20Akruti%20Gardenia%20Phase-2%2C%20Shop%20NO%2018%2C%20Building%20NO-13%2C%20Ground%2C%20Floor%2C%20Near%20CCG%20Club%20Near%20Silver%20Park%2C%20Mira%20Road%2C%20Thane%2C%20Maharashtra%20401107,19.28521919,72.87682343,,401107,Mira Bhayandar,Thane
Medicine India,"Shop No 15, 16, 17b, Goyal Plaza, Below Old Thunga Hospital, Mira Bhayandar Road, Mira Road, Thane, Mumbai 401107",https://www.bing.com/maps?cp=19.28432273864746%7E72.87044525146484&lvl=17.0&q=Medicine%20India%20%2C%20Shop%20No%2015%2C%2016%2C%2017b%2C%20Goyal%20Plaza%2C%20Below%20Old%20Thunga%20Hospital%2C%20Mira%20Bhayandar%20Road%2C%20Mira%20Road%2C%20Thane%2C%20Mumbai%20401107,19.28432274,72.87044525,022 2812 3622,401107,Mira Bhayandar,Thane
Welcome Medical & General Stores,"NEW Salasar Orchid CHS LTD, Shop NO 3, Near GCC Club, Salasar Garden, Mira Bhayandar Road, Mira Road, Thane, Maharashtra 401107",https://www.bing.com/maps?cp=19.28206443786621%7E72.87748718261719&lvl=17.0&q=Welcome%20Medical%20%26%20General%20Stores%20%2C%20NEW%20Salasar%20Orchid%20CHS%20LTD%2C%20Shop%20NO%203%2C%20Near%20GCC%20Club%2C%20Salasar%20Garden%2C%20Mira%20Bhayandar%20Road%2C%20Mira%20Road%2C%20Thane%2C%20Maharashtra%20401107,19.28206444,72.87748718,098207 32055,401107,Mira Bhayandar,Thane
Mediserve Healthcare Services,"Marigold 1, 1 E 102, First Floor, Near Cinemax Theatre, Mira Road East, Thane, Maharashtra 401107",https://www.bing.com/maps?cp=19.290802001953125%7E72.87820434570312&lvl=17.0&q=Mediserve%20Healthcare%20Services%20%2C%20Marigold%201%2C%201%20E%20102%2C%20First%20Floor%2C%20Near%20Cinemax%20Theatre%2C%20Mira%20Road%20East%2C%20Thane%2C%20Maharashtra%20401107,19.290802,72.87820435,098702 32121,401107,Mira Bhayandar,Thane
Om Medical,"Shop No 18, Smithal Avenue, Near Gold Star, Decent Homes, B Wing, Hatkesh Road, Mira Road East, Thane, Maharashtra 401107",https://www.bing.com/maps?cp=19.281837463378906%7E72.88189697265625&lvl=17.0&q=Om%20Medical%20%2C%20Shop%20No%2018%2C%20Smithal%20Avenue%2C%20Near%20Gold%20Star%2C%20Decent%20Homes%2C%20B%20Wing%2C%20Hatkesh%20Road%2C%20Mira%20Road%20East%2C%20Thane%2C%20Maharashtra%20401107,19.28183746,72.88189697,090047 10914,401107,Mira Bhayandar,Thane
Shree Ram Medical,"Shop No.18, Awing, Unique Orbit 2 Chsl, Ramdev Park Junction, Gr Flr, Kanakia Road, Mira Road, Thane, Maharashtra 401107",https://www.bing.com/maps?cp=19.295076370239258%7E72.86907958984375&lvl=17.0&q=Shree%20Ram%20Medical%20%2C%20Shop%20No.18%2C%20Awing%2C%20Unique%20Orbit%202%20Chsl%2C%20Ramdev%20Park%20Junction%2C%20Gr%20Flr%2C%20Kanakia%20Road%2C%20Mira%20Road%2C%20Thane%2C%20Maharashtra%20401107,19.29507637,72.86907959,,401107,Mira Bhayandar,Thane
Ali Clinical Laboratory,"Thana Chowk, THQ Hospital Road, Bhalwal, 40410, Pakistan, Thane, Maharashtra 401107",https://www.bing.com/maps?cp=19.29828643798828%7E72.8709487915039&lvl=17.0&q=Ali%20Clinical%20Laboratory%20%2C%20Thana%20Chowk%2C%20THQ%20Hospital%20Road%2C%20Bhalwal%2C%2040410%2C%20Pakistan%2C%20Thane%2C%20Maharashtra%20401107,19.29828644,72.87094879,,401107,Mira Bhayandar,Thane
Ankur Health Care,"Gcc Club Road, Mira Road East, Mumbai, Maharashtra 401107",https://www.bing.com/maps?cp=19.283639907836914%7E72.87582397460938&lvl=17.0&q=Ankur%20Health%20Care%20%2C%20Gcc%20Club%20Road%2C%20Mira%20Road%20East%2C%20Mumbai%2C%20Maharashtra%20401107,19.28363991,72.87582397,088975 40963,401107,Mira Bhayandar,Thane
Samartha IVF,"Shop 102, Ashadeep CHS, opp. Vijay Sales, Mira Bhayandar Road, Mira Road East, Thane, Maharashtra 401107",https://www.bing.com/maps?cp=19.28144645690918%7E72.87477111816406&lvl=17.0&q=Samartha%20IVF%20%2C%20Shop%20102%2C%20Ashadeep%20CHS%2C%20opp.%20Vijay%20Sales%2C%20Mira%20Bhayandar%20Road%2C%20Mira%20Road%20East%2C%20Thane%2C%20Maharashtra%20401107,19.28144646,72.87477112,097688 84433,401107,Mira Bhayandar,Thane
Disha Clinic,"Shop Number 13, Ritu Paradise, GCC Club Road, Mira Bhayandar Rd 401107",https://www.bing.com/maps?cp=19.282926559448242%7E72.87621307373047&lvl=17.0&q=Disha%20Clinic%20%2C%20Shop%20Number%2013%2C%20Ritu%20Paradise%2C%20GCC%20Club%20Road%2C%20Mira%20Bhayandar%20Rd%20401107,19.28292656,72.87621307,096190 55166,401107,Mira Bhayandar,Thane
R.S Clinic,"Gaurav Enclave Road, Mira Road, Mumbai, Maharashtra 401107",https://www.bing.com/maps?cp=19.28733253479004%7E72.87872314453125&lvl=17.0&q=R.S%20Clinic%20%2C%20Gaurav%20Enclave%20Road%2C%20Mira%20Road%2C%20Mumbai%2C%20Maharashtra%20401107,19.28733253,72.87872314,093247 50614,401107,Mira Bhayandar,Thane
Vasudha Clinic,"Gaurav Residency Wing-B/c/d/e, Kanakia Road, Mira Bhayandar, Mumbai, Maharashtra 401107",https://www.bing.com/maps?cp=19.289575576782227%7E72.87654876708984&lvl=17.0&q=Vasudha%20Clinic%20%2C%20Gaurav%20Residency%20Wing-B%2Fc%2Fd%2Fe%2C%20Kanakia%20Road%2C%20Mira%20Bhayandar%2C%20Mumbai%2C%20Maharashtra%20401107,19.28957558,72.87654877,099878 85711,401107,Mira Bhayandar,Thane
Ronak Medical,"Shiv Puja, Shop NO 11, Ground Floor, Shanti Park, Bhayander East, Thane, Maharashtra 401107",https://www.bing.com/maps?cp=19.280603408813477%7E72.86722564697266&lvl=17.0&q=Ronak%20Medical%20%2C%20Shiv%20Puja%2C%20Shop%20NO%2011%2C%20Ground%20Floor%2C%20Shanti%20Park%2C%20Bhayander%20East%2C%20Thane%2C%20Maharashtra%20401107,19.28060341,72.86722565,082868 62866,401107,Mira Bhayandar,Thane
Shri Surabhi Clinic,"Gcc Club Road, Mira Road East, Mumbai, Maharashtra 401107",https://www.bing.com/maps?cp=19.2827205657959%7E72.87661743164062&lvl=17.0&q=Shri%20Surabhi%20Clinic%20%2C%20Gcc%20Club%20Road%2C%20Mira%20Road%20East%2C%20Mumbai%2C%20Maharashtra%20401107,19.28272057,72.87661743,098695 73009,401107,Mira Bhayandar,Thane
Sai Baba Clinic,"Mira Road, Thane, Maharashtra 401107",https://www.bing.com/maps?cp=19.279151916503906%7E72.88141632080078&lvl=17.0&q=Sai%20Baba%20Clinic%20%2C%20Mira%20Road%2C%20Thane%2C%20Maharashtra%20401107,19.27915192,72.88141632,098923 26464,401107,Mira Bhayandar,Thane
Sai Kripa Clinic,"Laxmi Park Kanakia Road Mira Road East, Mumbai 401105",https://www.bing.com/maps?cp=19.277572631835938%7E72.87840270996094&lvl=17.0&q=Sai%20Kripa%20Clinic%20%2C%20Laxmi%20Park%20Kanakia%20Road%20Mira%20Road%20East%2C%20Mumbai%20401105,19.27757263,72.87840271,076780 99220,401105,Mira Bhayandar,Thane
Mallika Health Clinic,"Shop NO. 31 Hubtown Gardenia, Mira Road Phase 2, Thane, Maharashtra 401107",https://www.bing.com/maps?cp=19.284873962402344%7E72.87693786621094&lvl=17.0&q=Mallika%20Health%20Clinic%20%2C%20Shop%20NO.%2031%20Hubtown%20Gardenia%2C%20Mira%20Road%20Phase%202%2C%20Thane%2C%20Maharashtra%20401107,19.28487396,72.87693787,075060 69904,401107,Mira Bhayandar,Thane
Ashish Hospital,"C\104, 105, 106, Manshi Classic Chsl, Kashigaon, Beside Sai Krupa Complex, Kashimira, Mira Road East, Thane, Maharashtra 401107",https://www.bing.com/maps?cp=19.272165298461914%7E72.88614654541016&lvl=17.0&q=Ashish%20Hospital%20%2C%20C%5C104%2C%20105%2C%20106%2C%20Manshi%20Classic%20Chsl%2C%20Kashigaon%2C%20Beside%20Sai%20Krupa%20Complex%2C%20Kashimira%2C%20Mira%20Road%20East%2C%20Thane%2C%20Maharashtra%20401107,19.2721653,72.88614655,098192 50565,401107,Mira Bhayandar,Thane
Laxmi Medical and General Stores,"Rajshree Shopping Center, Shop NO 1 AND 2, Fish Market, OPP, Surbhi Hotel, Thane, Maharashtra 401107",https://www.bing.com/maps?cp=19.276411056518555%7E72.87445068359375&lvl=17.0&q=Laxmi%20Medical%20and%20General%20Stores%20%2C%20Rajshree%20Shopping%20Center%2C%20Shop%20NO%201%20AND%202%2C%20Fish%20Market%2C%20OPP%2C%20Surbhi%20Hotel%2C%20Thane%2C%20Maharashtra%20401107,19.27641106,72.87445068,022 2812 9865,401107,Mira Bhayandar,Thane
Madina Clinic,"Ahsish Hospital Multispeciality, Mira Road East, Mumbai, Maharashtra 401107",https://www.bing.com/maps?cp=19.273378372192383%7E72.8905029296875&lvl=17.0&q=Madina%20Clinic%20%2C%20Ahsish%20Hospital%20Multispeciality%2C%20Mira%20Road%20East%2C%20Mumbai%2C%20Maharashtra%20401107,19.27337837,72.89050293,,401107,Mira Bhayandar,Thane
Sant Krupa Clinic,"Gcc Club Road, Mira Road East, Mumbai, Maharashtra 401107",https://www.bing.com/maps?cp=19.28317642211914%7E72.87599182128906&lvl=17.0&q=Sant%20Krupa%20Clinic%20%2C%20Gcc%20Club%20Road%2C%20Mira%20Road%20East%2C%20Mumbai%2C%20Maharashtra%20401107,19.28317642,72.87599182,098197 63454,401107,Mira Bhayandar,Thane
Shiv Ayurvedic,"8/9, Shanti Plaza, Shanti Park, Mumbai, Maharashtra 401107",https://www.bing.com/maps?cp=19.282230377197266%7E72.8734359741211&lvl=17.0&q=Shiv%20Ayurvedic%20%2C%208%2F9%2C%20Shanti%20Plaza%2C%20Shanti%20Park%2C%20Mumbai%2C%20Maharashtra%20401107,19.28223038,72.87343597,095940 43170,401107,Mira Bhayandar,Thane
Shyam Eye&General Hospital,"Bunglow No.3, Gaurav Row House B/h. G.c.c.Club, Rashmi Mangal Nagar, Gaurav Sankalp, Mira Road, Maharashtra 401107",https://www.bing.com/maps?cp=19.28519058227539%7E72.88037109375&lvl=17.0&q=Shyam%20Eye%26General%20Hospital%20%2C%20Bunglow%20No.3%2C%20Gaurav%20Row%20House%20B%2Fh.%20G.c.c.Club%2C%20Rashmi%20Mangal%20Nagar%2C%20Gaurav%20Sankalp%2C%20Mira%20Road%2C%20Maharashtra%20401107,19.28519058,72.88037109,088980 06633,401107,Mira Bhayandar,Thane
Samartha IVF Center,"102 Mira Bhayander Road, Thane, Maharashtra 401107",https://www.bing.com/maps?cp=19.27953338623047%7E72.88452911376953&lvl=17.0&q=Samartha%20IVF%20Center%20%2C%20102%20Mira%20Bhayander%20Road%2C%20Thane%2C%20Maharashtra%20401107,19.27953339,72.88452911,097688 84433,401107,Mira Bhayandar,Thane
Ashirwad Medical,"Shop NO-5, Western Express Highway, Mira Road East, Thane, Maharashtra 401107",https://www.bing.com/maps?cp=19.26795768737793%7E72.8795394897461&lvl=17.0&q=Ashirwad%20Medical%20%2C%20Shop%20NO-5%2C%20Western%20Express%20Highway%2C%20Mira%20Road%20East%2C%20Thane%2C%20Maharashtra%20401107,19.26795769,72.87953949,,401107,Mira Bhayandar,Thane
Sai Medical,"Building NO-1 Shweta Residency, Shop NO 12, B Wing, Ground Floor, Ramdev Park Road, Mira Road East, Thane, Maharashtra 401107",https://www.bing.com/maps?cp=19.26450538635254%7E72.87994384765625&lvl=17.0&q=Sai%20Medical%20%2C%20Building%20NO-1%20Shweta%20Residency%2C%20Shop%20NO%2012%2C%20B%20Wing%2C%20Ground%20Floor%2C%20Ramdev%20Park%20Road%2C%20Mira%20Road%20East%2C%20Thane%2C%20Maharashtra%20401107,19.26450539,72.87994385,,401107,Mira Bhayandar,Thane
Sushrut Clinic,"St Xaviers School Road, R D Memorial High School, Mira Road East, Mumbai, Maharashtra 401107",https://www.bing.com/maps?cp=19.2705020904541%7E72.88998413085938&lvl=17.0&q=Sushrut%20Clinic%20%2C%20St%20Xaviers%20School%20Road%2C%20R%20D%20Memorial%20High%20School%2C%20Mira%20Road%20East%2C%20Mumbai%2C%20Maharashtra%20401107,19.27050209,72.88998413,,401107,Mira Bhayandar,Thane
Sai Baba HOSPITAL,"Western Express Highway, Mira Road East, Mumbai, Maharashtra 401107",https://www.bing.com/maps?cp=19.27030372619629%7E72.8792953491211&lvl=17.0&q=Sai%20Baba%20HOSPITAL%20%2C%20Western%20Express%20Highway%2C%20Mira%20Road%20East%2C%20Mumbai%2C%20Maharashtra%20401107,19.27030373,72.87929535,,401107,Mira Bhayandar,Thane
Ashwini Medical and General Store,"Mira Road, Mumbai, Maharashtra 401104",https://www.bing.com/maps?cp=19.269763946533203%7E72.87865447998047&lvl=17.0&q=Ashwini%20Medical%20and%20General%20Store%20%2C%20Mira%20Road%2C%20Mumbai%2C%20Maharashtra%20401104,19.26976395,72.87865448,090297 47996,401104,Mira Bhayandar,Thane
Shiv Medical and General Store,"AMI Drasti, SH-07, Ground Floor, Mumbai Suburban, S V Road, OPP, Manav Kalyan Kendra, Dahisar East, Mumbai, Maharashtra 400068",https://www.bing.com/maps?cp=19.25212287902832%7E72.87335205078125&lvl=17.0&q=Shiv%20Medical%20and%20General%20Store%20%2C%20AMI%20Drasti%2C%20SH-07%2C%20Ground%20Floor%2C%20Mumbai%20Suburban%2C%20S%20V%20Road%2C%20OPP%2C%20Manav%20Kalyan%20Kendra%2C%20Dahisar%20East%2C%20Mumbai%2C%20Maharashtra%20400068,19.25212288,72.87335205,098197 79341,400068,Dahisar,Mumbai
City Medical and General Stores,"Shop No \ 06, Shree Chintamani Nagar Chs Ltd, Ashok Van, Dahisar, Shiv Vallabh Road, Mumbai, Maharashtra 400068",https://www.bing.com/maps?cp=19.242061614990234%7E72.86695098876953&lvl=17.0&q=City%20Medical%20and%20General%20Stores%20%2C%20Shop%20No%20%5C%2006%2C%20Shree%20Chintamani%20Nagar%20Chs%20Ltd%2C%20Ashok%20Van%2C%20Dahisar%2C%20Shiv%20Vallabh%20Road%2C%20Mumbai%2C%20Maharashtra%20400068,19.24206161,72.86695099,084339 01567,400068,Dahisar,Mumbai
Kamal Medical&General Store,"Bheem Chsl, N L Complex, Shop NO AA003, Mumbai Suburban, Anand Nagar, Dahisar East, Mumbai, Maharashtra 400068",https://www.bing.com/maps?cp=19.260496139526367%7E72.8656234741211&lvl=17.0&q=Kamal%20Medical%26General%20Store%20%2C%20Bheem%20Chsl%2C%20N%20L%20Complex%2C%20Shop%20NO%20AA003%2C%20Mumbai%20Suburban%2C%20Anand%20Nagar%2C%20Dahisar%20East%2C%20Mumbai%2C%20Maharashtra%20400068,19.26049614,72.86562347,099300 48659,400068,Dahisar,Mumbai
Shrey Clinic,"Hanuman Mandir, Dahisar East, Mumbai, Maharashtra 400068",https://www.bing.com/maps?cp=19.2564754486084%7E72.87373352050781&lvl=17.0&q=Shrey%20Clinic%20%2C%20Hanuman%20Mandir%2C%20Dahisar%20East%2C%20Mumbai%2C%20Maharashtra%20400068,19.25647545,72.87373352,,400068,Dahisar,Mumbai
Raj Medical & General Stores,"m h b Colony, 21/124, Ground Floor, s n Dube Road, Dahisar East, Mumbai, Maharashtra 400068",https://www.bing.com/maps?cp=19.2506103515625%7E72.86581420898438&lvl=17.0&q=Raj%20Medical%20%26%20General%20Stores%20%2C%20m%20h%20b%20Colony%2C%2021%2F124%2C%20Ground%20Floor%2C%20s%20n%20Dube%20Road%2C%20Dahisar%20East%2C%20Mumbai%2C%20Maharashtra%20400068,19.25061035,72.86581421,,400068,Dahisar,Mumbai
Shree Medical and General Stores,"N G Park Bldg NO 5, 24B, Shiv Vallabh Cross Road, Rawalpada Dahisar East, Mumbai, Maharashtra 400068",https://www.bing.com/maps?cp=19.242340087890625%7E72.8720474243164&lvl=17.0&q=Shree%20Medical%20and%20General%20Stores%20%2C%20N%20G%20Park%20Bldg%20NO%205%2C%2024B%2C%20Shiv%20Vallabh%20Cross%20Road%2C%20Rawalpada%20Dahisar%20East%2C%20Mumbai%2C%20Maharashtra%20400068,19.24234009,72.87204742,,400068,Dahisar,Mumbai
Bhakti Vedanta Hospital,"Mira Road, Thane, Maharashtra 401107",https://www.bing.com/maps?cp=19.27001953125%7E72.87022399902344&lvl=17.0&q=Bhakti%20Vedanta%20Hospital%20%2C%20Mira%20Road%2C%20Thane%2C%20Maharashtra%20401107,19.27001953,72.870224,084001 46262,401107,Mira Bhayandar,Thane
Shree Sparsh Clinic,"Vinay Nagar Road, Shri Krishna Hospital, Mira Road East, Mumbai, Maharashtra 401107",https://www.bing.com/maps?cp=19.27919578552246%7E72.88190460205078&lvl=17.0&q=Shree%20Sparsh%20Clinic%20%2C%20Vinay%20Nagar%20Road%2C%20Shri%20Krishna%20Hospital%2C%20Mira%20Road%20East%2C%20Mumbai%2C%20Maharashtra%20401107,19.27919579,72.8819046,,401107,Mira Bhayandar,Thane
Gayatri Medicos,"Shop NO 002/A NEW SAI Sristi, Mira Road, Thane, Maharashtra 401107",https://www.bing.com/maps?cp=19.270936965942383%7E72.87861633300781&lvl=17.0&q=Gayatri%20Medicos%20%2C%20Shop%20NO%20002%2FA%20NEW%20SAI%20Sristi%2C%20Mira%20Road%2C%20Thane%2C%20Maharashtra%20401107,19.27093697,72.87861633,022 2855 3308,401107,Mira Bhayandar,Thane
"MAHESHWARAM SURGICALS (SURGICAL SUTURE in Mumbai, Diagnostic MATERIAL, in MUMBAI MIRA, BHAYANDAR,)","B Wing, Shop No 13, Sai Akruti Empire, Ramdev Park, Beside Woodland Hotel, Mira Road East, Mira Bhayandar, Thane, Maharashtra 401107",https://www.bing.com/maps?cp=19.27953338623047%7E72.88452911376953&lvl=17.0&q=MAHESHWARAM%20SURGICALS%20(SURGICAL%20SUTURE%20in%20Mumbai%2C%20Diagnostic%20MATERIAL%2C%20in%20MUMBAI%20MIRA%2C%20BHAYANDAR%2C)%20%2C%20B%20Wing%2C%20Shop%20No%2013%2C%20Sai%20Akruti%20Empire%2C%20Ramdev%20Park%2C%20Beside%20Woodland%20Hotel%2C%20Mira%20Road%20East%2C%20Mira%20Bhayandar%2C%20Thane%2C%20Maharashtra%20401107,19.27953339,72.88452911,090043 75123,401107,Mira Bhayandar,Thane
Jai Ambe Hospital,"Om Shivdham Chs, Vaishali Nagar, s.p Road, Dahisar East, Mumbai -400068, Thane, Maharashtra 401107",https://www.bing.com/maps?cp=19.270755767822266%7E72.87480163574219&lvl=17.0&q=Jai%20Ambe%20Hospital%20%2C%20Om%20Shivdham%20Chs%2C%20Vaishali%20Nagar%2C%20s.p%20Road%2C%20Dahisar%20East%2C%20Mumbai%20-400068%2C%20Thane%2C%20Maharashtra%20401107,19.27075577,72.87480164,088509 51153,401107,Mira Bhayandar,Thane
Chaitanya Welfare Charitable Trust,"1 Bhakti Vedanta Hospital, Shristi Mira, Thane, Maharashtra 401104",https://www.bing.com/maps?cp=19.262624740600586%7E72.87336730957031&lvl=17.0&q=Chaitanya%20Welfare%20Charitable%20Trust%20%2C%201%20Bhakti%20Vedanta%20Hospital%2C%20Shristi%20Mira%2C%20Thane%2C%20Maharashtra%20401104,19.26262474,72.87336731,022 2945 1409,401104,Mira Bhayandar,Thane
Ssp Health and You Private Limited,"Flat NO 604, Navgrah Bldg NO D-1-61 CHS LTD, Poonam Sagar Complex, Mira Road East, Thane, Maharashtra 401107",https://www.bing.com/maps?cp=19.271738052368164%7E72.87245178222656&lvl=17.0&q=Ssp%20Health%20and%20You%20Private%20Limited%20%2C%20Flat%20NO%20604%2C%20Navgrah%20Bldg%20NO%20D-1-61%20CHS%20LTD%2C%20Poonam%20Sagar%20Complex%2C%20Mira%20Road%20East%2C%20Thane%2C%20Maharashtra%20401107,19.27173805,72.87245178,086574 44015,401107,Mira Bhayandar,Thane
Citiustech Healthcare Technology,"1708, Bldg No 29, Db Ozone, W 6 Highway, Near Dahisar Cheak Naka, Mira Road East, Thane, Maharashtra 401107",https://www.bing.com/maps?cp=19.26116180419922%7E72.8752670288086&lvl=17.0&q=Citiustech%20Healthcare%20Technology%20%2C%201708%2C%20Bldg%20No%2029%2C%20Db%20Ozone%2C%20W%206%20Highway%2C%20Near%20Dahisar%20Cheak%20Naka%2C%20Mira%20Road%20East%2C%20Thane%2C%20Maharashtra%20401107,19.2611618,72.87526703,,401107,Mira Bhayandar,Thane
JYOTI CLINIC,"Suhasini Pawaskar Marg, Sanjeevani World School, Dahisar East, Mumbai, Maharashtra 400068",https://www.bing.com/maps?cp=19.252643585205078%7E72.87346649169922&lvl=17.0&q=JYOTI%20CLINIC%20%2C%20Suhasini%20Pawaskar%20Marg%2C%20Sanjeevani%20World%20School%2C%20Dahisar%20East%2C%20Mumbai%2C%20Maharashtra%20400068,19.25264359,72.87346649,,400068,Dahisar,Mumbai
Shree Mahadev Medical and General Stores,"Shop NO-6, B-Wing, Krishna Appt, Halkara Complex, Chhatrapati Shivaji RD, Dahisar East, Mumbai, Maharashtra 400068",https://www.bing.com/maps?cp=19.254716873168945%7E72.86302185058594&lvl=17.0&q=Shree%20Mahadev%20Medical%20and%20General%20Stores%20%2C%20Shop%20NO-6%2C%20B-Wing%2C%20Krishna%20Appt%2C%20Halkara%20Complex%2C%20Chhatrapati%20Shivaji%20RD%2C%20Dahisar%20East%2C%20Mumbai%2C%20Maharashtra%20400068,19.25471687,72.86302185,,400068,Dahisar,Mumbai
Nirmal Clinic,"St Nyaneshwar Chowk, Dahisar East, Mumbai, Maharashtra 400068",https://www.bing.com/maps?cp=19.259485244750977%7E72.86148071289062&lvl=17.0&q=Nirmal%20Clinic%20%2C%20St%20Nyaneshwar%20Chowk%2C%20Dahisar%20East%2C%20Mumbai%2C%20Maharashtra%20400068,19.25948524,72.86148071,,400068,Dahisar,Mumbai
Inhalation Health,"201 Second Floor Bheem AA N L Complex, Dahisar (East), Mumbai, Maharashtra 400068",https://www.bing.com/maps?cp=19.26134490966797%7E72.86578369140625&lvl=17.0&q=Inhalation%20Health%20%2C%20201%20Second%20Floor%20Bheem%20AA%20N%20L%20Complex%2C%20Dahisar%20(East)%2C%20Mumbai%2C%20Maharashtra%20400068,19.26134491,72.86578369,091670 12313,400068,Dahisar,Mumbai
Pratham Medisurge,"Shop No.11, Rubi Complex, Dahisar, Harishankar Joshi Marg Road, Mumbai, Maharashtra 400068",https://www.bing.com/maps?cp=19.26021385192871%7E72.86530303955078&lvl=17.0&q=Pratham%20Medisurge%20%2C%20Shop%20No.11%2C%20Rubi%20Complex%2C%20Dahisar%2C%20Harishankar%20Joshi%20Marg%20Road%2C%20Mumbai%2C%20Maharashtra%20400068,19.26021385,72.86530304,,400068,Dahisar,Mumbai
Kevalya Hospital,"615 MIDC Road, Thane, Maharashtra 401107",https://www.bing.com/maps?cp=19.269826889038086%7E72.95616149902344&lvl=17.0&q=Kevalya%20Hospital%20%2C%20615%20MIDC%20Road%2C%20Thane%2C%20Maharashtra%20401107,19.26982689,72.9561615,093218 00939,401107,Mira Bhayandar,Thane
Sanjay Medical and General Stores,"Shop NO 11, B 22, Shanti Nagar, Sector 7, OPP SEC 8, Mira Road, Thane, Maharashtra 401107",https://www.bing.com/maps?cp=19.28090476989746%7E72.86239624023438&lvl=17.0&q=Sanjay%20Medical%20and%20General%20Stores%20%2C%20Shop%20NO%2011%2C%20B%2022%2C%20Shanti%20Nagar%2C%20Sector%207%2C%20OPP%20SEC%208%2C%20Mira%20Road%2C%20Thane%2C%20Maharashtra%20401107,19.28090477,72.86239624,022 2855 2981,401107,Mira Bhayandar,Thane
Garg's Dental&Medical Care,"Flat 001, bld. B-3 Gurukripa CHS, Sector 6, Shantinagar, Mira Road, Maharashtra 401107",https://www.bing.com/maps?cp=19.280864715576172%7E72.86400604248047&lvl=17.0&q=Garg's%20Dental%26Medical%20Care%20%2C%20Flat%20001%2C%20bld.%20B-3%20Gurukripa%20CHS%2C%20Sector%206%2C%20Shantinagar%2C%20Mira%20Road%2C%20Maharashtra%20401107,19.28086472,72.86400604,022 2811 3495,401107,Mira Bhayandar,Thane
Mahipal Medical & General Stores,"A-9/001 A-9/001, Mira Road, Thane, Maharashtra 401107",https://www.bing.com/maps?cp=19.276504516601562%7E72.85953521728516&lvl=17.0&q=Mahipal%20Medical%20%26%20General%20Stores%20%2C%20A-9%2F001%20A-9%2F001%2C%20Mira%20Road%2C%20Thane%2C%20Maharashtra%20401107,19.27650452,72.85953522,022 2810 6035,401107,Mira Bhayandar,Thane
Shivam Clinic,"3, Satsung 3, Lanadmrk: Poonam Sagar Complex, Mumbai 401107",https://www.bing.com/maps?cp=19.272968292236328%7E72.86226654052734&lvl=17.0&q=Shivam%20Clinic%20%2C%203%2C%20Satsung%203%2C%20Lanadmrk%3A%20Poonam%20Sagar%20Complex%2C%20Mumbai%20401107,19.27296829,72.86226654,099202 17172,401107,Mira Bhayandar,Thane
Dr Kiran M Mistry Clinic,"C-7/001, Sector 4, Pralhad, Landmark: Shanti Nagar, Mumbai, Mumbai 401107",https://www.bing.com/maps?cp=19.280200958251953%7E72.86046600341797&lvl=17.0&q=Dr%20Kiran%20M%20Mistry%20Clinic%20%2C%20C-7%2F001%2C%20Sector%204%2C%20Pralhad%2C%20Landmark%3A%20Shanti%20Nagar%2C%20Mumbai%2C%20Mumbai%20401107,19.28020096,72.860466,099201 84400,401107,Mira Bhayandar,Thane
Diagnostic Centre,"17-19 Ratnadeep Building, Bhayandar B - Wing, Thane, Maharashtra 401105",https://www.bing.com/maps?cp=19.308401107788086%7E72.85869598388672&lvl=17.0&q=Diagnostic%20Centre%20%2C%2017-19%20Ratnadeep%20Building%2C%20Bhayandar%20B%20-%20Wing%2C%20Thane%2C%20Maharashtra%20401105,19.30840111,72.85869598,093204 79900,401105,Mira Bhayandar,Thane
Swamin Lifecare,"Shop NO 10 A 14 Shanti Vihar CHS LTD Opposite Sector NO 2, Shanti Nagar Mira Road East, Thane, Maharashtra 401107",https://www.bing.com/maps?cp=19.279356002807617%7E72.85873413085938&lvl=17.0&q=Swamin%20Lifecare%20%2C%20Shop%20NO%2010%20A%2014%20Shanti%20Vihar%20CHS%20LTD%20Opposite%20Sector%20NO%202%2C%20Shanti%20Nagar%20Mira%20Road%20East%2C%20Thane%2C%20Maharashtra%20401107,19.279356,72.85873413,,401107,Mira Bhayandar,Thane
Vinay Ayurved and General Store,"Room NO. K/326 Madavi Pada, Near Boss Office Masecha Pada Road, Thane, Maharashtra 401107",https://www.bing.com/maps?cp=19.2797794342041%7E72.85918426513672&lvl=17.0&q=Vinay%20Ayurved%20and%20General%20Store%20%2C%20Room%20NO.%20K%2F326%20Madavi%20Pada%2C%20Near%20Boss%20Office%20Masecha%20Pada%20Road%2C%20Thane%2C%20Maharashtra%20401107,19.27977943,72.85918427,099694 35187,401107,Mira Bhayandar,Thane
Hazra Clinic,"13 Kasam Tower, Naya Nagar Nr Police Stn, Mira Road, Thane, Maharashtra 401107",https://www.bing.com/maps?cp=19.285316467285156%7E72.85596466064453&lvl=17.0&q=Hazra%20Clinic%20%2C%2013%20Kasam%20Tower%2C%20Naya%20Nagar%20Nr%20Police%20Stn%2C%20Mira%20Road%2C%20Thane%2C%20Maharashtra%20401107,19.28531647,72.85596466,022 2855 5497,401107,Mira Bhayandar,Thane
"Infinite Vision Care - Eye Hospital Mira road, Dr Shaila l Cataract l Lasik | Cornea in Mira road","301 Raj Oaks, Shanti Park, Near don Bosco School, Mtnl Road, Mira Road East, Thane 401107, Mira Road, Thane, Maharashtra 401107",https://www.bing.com/maps?cp=19.281578063964844%7E72.86825561523438&lvl=17.0&q=Infinite%20Vision%20Care%20-%20Eye%20Hospital%20Mira%20road%2C%20Dr%20Shaila%20l%20Cataract%20l%20Lasik%20%7C%20Cornea%20in%20Mira%20road%20%2C%20301%20Raj%20Oaks%2C%20Shanti%20Park%2C%20Near%20don%20Bosco%20School%2C%20Mtnl%20Road%2C%20Mira%20Road%20East%2C%20Thane%20401107%2C%20Mira%20Road%2C%20Thane%2C%20Maharashtra%20401107,19.28157806,72.86825562,073044 24900,401107,Mira Bhayandar,Thane
V CARE SURGICAL,"Mira Kutir Society Silver Park Road, Thane, Maharashtra 401107",https://www.bing.com/maps?cp=19.27899932861328%7E72.86920166015625&lvl=17.0&q=V%20CARE%20SURGICAL%20%2C%20Mira%20Kutir%20Society%20Silver%20Park%20Road%2C%20Thane%2C%20Maharashtra%20401107,19.27899933,72.86920166,091374 44760,401107,Mira Bhayandar,Thane
Dr Umesh R Pandey Clinic,"5A/1, Allahabad Bank Mira Road East Branch, Shanti Vihar, Mumbai, Maharashtra 401107",https://www.bing.com/maps?cp=19.272764205932617%7E72.86299896240234&lvl=17.0&q=Dr%20Umesh%20R%20Pandey%20Clinic%20%2C%205A%2F1%2C%20Allahabad%20Bank%20Mira%20Road%20East%20Branch%2C%20Shanti%20Vihar%2C%20Mumbai%2C%20Maharashtra%20401107,19.27276421,72.86299896,098198 98321,401107,Mira Bhayandar,Thane
Dr S a Jamal Clinic,"7, Shanti Path Road, Little Flower Chowk, Mira Road East, Mumbai, Maharashtra 401107",https://www.bing.com/maps?cp=19.279094696044922%7E72.86840057373047&lvl=17.0&q=Dr%20S%20a%20Jamal%20Clinic%20%2C%207%2C%20Shanti%20Path%20Road%2C%20Little%20Flower%20Chowk%2C%20Mira%20Road%20East%2C%20Mumbai%2C%20Maharashtra%20401107,19.2790947,72.86840057,,401107,Mira Bhayandar,Thane
Marediya Clinic,"St Xaviers High School Road, Mira Road East, Mumbai, Maharashtra 401107",https://www.bing.com/maps?cp=19.276765823364258%7E72.8696517944336&lvl=17.0&q=Marediya%20Clinic%20%2C%20St%20Xaviers%20High%20School%20Road%2C%20Mira%20Road%20East%2C%20Mumbai%2C%20Maharashtra%20401107,19.27676582,72.86965179,079774 33904,401107,Mira Bhayandar,Thane
Dr. Stuti Mehta,"10, Satsang-3 B, Navgrah Complex, Poonam Sagar Complex, Mira Road, Maharashtra 401107",https://www.bing.com/maps?cp=19.271526336669922%7E72.86308288574219&lvl=17.0&q=Dr.%20Stuti%20Mehta%20%2C%2010%2C%20Satsang-3%20B%2C%20Navgrah%20Complex%2C%20Poonam%20Sagar%20Complex%2C%20Mira%20Road%2C%20Maharashtra%20401107,19.27152634,72.86308289,079001 90278,401107,Mira Bhayandar,Thane
Amaravati Clinic,"Shop No 18 Happy Home Complex, Shanti Park Mira Road E, Thane, Maharashtra 401107",https://www.bing.com/maps?cp=19.280414581298828%7E72.86632537841797&lvl=17.0&q=Amaravati%20Clinic%20%2C%20Shop%20No%2018%20Happy%20Home%20Complex%2C%20Shanti%20Park%20Mira%20Road%20E%2C%20Thane%2C%20Maharashtra%20401107,19.28041458,72.86632538,098204 67650,401107,Mira Bhayandar,Thane
Tapase Diagnostic Centre,"004\69, Madhav Tower, Shanti Park, Nr Jangid Tower, Mira Road East, Thane, Maharashtra 401107",https://www.bing.com/maps?cp=19.280460357666016%7E72.86972045898438&lvl=17.0&q=Tapase%20Diagnostic%20Centre%20%2C%20004%5C69%2C%20Madhav%20Tower%2C%20Shanti%20Park%2C%20Nr%20Jangid%20Tower%2C%20Mira%20Road%20East%2C%20Thane%2C%20Maharashtra%20401107,19.28046036,72.86972046,022 2810 7030,401107,Mira Bhayandar,Thane
Dr. Suri 'S Maternity&Surgical Nursing Home,"R Wing Gokul Village Shanti Park Miraroad East, Thane, Maharashtra 401107",https://www.bing.com/maps?cp=19.280010223388672%7E72.86890411376953&lvl=17.0&q=Dr.%20Suri%20'S%20Maternity%26Surgical%20Nursing%20Home%20%2C%20R%20Wing%20Gokul%20Village%20Shanti%20Park%20Miraroad%20East%2C%20Thane%2C%20Maharashtra%20401107,19.28001022,72.86890411,098210 31014,401107,Mira Bhayandar,Thane
Sabka dentist - Mira Road,"Shanti Plaza, Shop No 17, Station Road, Ground Floor, Near Oriental Bank, Sector 11, Shanti Nagar, Mira Road East, Maharashtra 401107",https://www.bing.com/maps?cp=19.2829532623291%7E72.86251831054688&lvl=17.0&q=Sabka%20dentist%20-%20Mira%20Road%20%2C%20Shanti%20Plaza%2C%20Shop%20No%2017%2C%20Station%20Road%2C%20Ground%20Floor%2C%20Near%20Oriental%20Bank%2C%20Sector%2011%2C%20Shanti%20Nagar%2C%20Mira%20Road%20East%2C%20Maharashtra%20401107,19.28295326,72.86251831,082918 49548,401107,Mira Bhayandar,Thane
Life Flexible,"Shree Shashwat Bldg NO 12, 702, Near Pleasant Park Mira Bhaindar, Road, Mira Road East, Thane, Maharashtra 401107",https://www.bing.com/maps?cp=19.281381607055664%7E72.87456512451172&lvl=17.0&q=Life%20Flexible%20%2C%20Shree%20Shashwat%20Bldg%20NO%2012%2C%20702%2C%20Near%20Pleasant%20Park%20Mira%20Bhaindar%2C%20Road%2C%20Mira%20Road%20East%2C%20Thane%2C%20Maharashtra%20401107,19.28138161,72.87456512,090290 71765,401107,Mira Bhayandar,Thane
Chandras Dental Clinic,"Shop No.15, Satyam Heritage, Opp Amber Plaza, Vijay Park, Mira Road East, Thane, Maharashtra 401107",https://www.bing.com/maps?cp=19.276931762695312%7E72.8729476928711&lvl=17.0&q=Chandras%20Dental%20Clinic%20%2C%20Shop%20No.15%2C%20Satyam%20Heritage%2C%20Opp%20Amber%20Plaza%2C%20Vijay%20Park%2C%20Mira%20Road%20East%2C%20Thane%2C%20Maharashtra%20401107,19.27693176,72.87294769,090334 37960,401107,Mira Bhayandar,Thane
Nav Jivan Medical & General Stores,"OM Sadanand Apartment, Shop NO 6, Ground Floor, Ideal Park, P K, Road, NR Deepak Hospital, Mira Road East, Mira Bhayander Road, Thane, Maharashtra 401107",https://www.bing.com/maps?cp=19.29379653930664%7E72.86212921142578&lvl=17.0&q=Nav%20Jivan%20Medical%20%26%20General%20Stores%20%2C%20OM%20Sadanand%20Apartment%2C%20Shop%20NO%206%2C%20Ground%20Floor%2C%20Ideal%20Park%2C%20P%20K%2C%20Road%2C%20NR%20Deepak%20Hospital%2C%20Mira%20Road%20East%2C%20Mira%20Bhayander%20Road%2C%20Thane%2C%20Maharashtra%20401107,19.29379654,72.86212921,,401107,Mira Bhayandar,Thane
Khushi Medical,"Shop No.02, Ground Floor, Gopal Vihar, Dahisar West, Mumbai, Maharashtra 400068",https://www.bing.com/maps?cp=19.246721267700195%7E72.85143280029297&lvl=17.0&q=Khushi%20Medical%20%2C%20Shop%20No.02%2C%20Ground%20Floor%2C%20Gopal%20Vihar%2C%20Dahisar%20West%2C%20Mumbai%2C%20Maharashtra%20400068,19.24672127,72.8514328,093266 97587,400068,Dahisar,Mumbai
Precise Diagnostic,"101, Saichirag CHS, Queens Park, Miraroad, Mirabhayander Road, Thane, Maharashtra 401107",https://www.bing.com/maps?cp=19.285539627075195%7E72.86469268798828&lvl=17.0&q=Precise%20Diagnostic%20%2C%20101%2C%20Saichirag%20CHS%2C%20Queens%20Park%2C%20Miraroad%2C%20Mirabhayander%20Road%2C%20Thane%2C%20Maharashtra%20401107,19.28553963,72.86469269,097692 77229,401107,Mira Bhayandar,Thane
Smile Studio,"Ss Studio Mira Road, Thane, Maharashtra, Indien, Maharashtra 401107",https://www.bing.com/maps?cp=19.281774520874023%7E72.86076354980469&lvl=17.0&q=Smile%20Studio%20%2C%20Ss%20Studio%20Mira%20Road%2C%20Thane%2C%20Maharashtra%2C%20Indien%2C%20Maharashtra%20401107,19.28177452,72.86076355,080808 08212,401107,Mira Bhayandar,Thane
Al Shifa Bone Setter Clinic,"4, Shrikant Dhadwe Road, Mira Road East, Mumbai, Maharashtra 401107",https://www.bing.com/maps?cp=19.282461166381836%7E72.85795593261719&lvl=17.0&q=Al%20Shifa%20Bone%20Setter%20Clinic%20%2C%204%2C%20Shrikant%20Dhadwe%20Road%2C%20Mira%20Road%20East%2C%20Mumbai%2C%20Maharashtra%20401107,19.28246117,72.85795593,099879 51347,401107,Mira Bhayandar,Thane
Abidi Clinic,"Building No.5-b, Narendra Park Venus, Lodha Rd, Naya Nagar, Mira Road, Maharashtra 401107",https://www.bing.com/maps?cp=19.28645133972168%7E72.85859680175781&lvl=17.0&q=Abidi%20Clinic%20%2C%20Building%20No.5-b%2C%20Narendra%20Park%20Venus%2C%20Lodha%20Rd%2C%20Naya%20Nagar%2C%20Mira%20Road%2C%20Maharashtra%20401107,19.28645134,72.8585968,022 6421 7682,401107,Mira Bhayandar,Thane
Tehrim Clinic,"Lodha Road, Ganga Complex Masjid, Mira Road East, Mumbai, Maharashtra 401107",https://www.bing.com/maps?cp=19.28972625732422%7E72.85763549804688&lvl=17.0&q=Tehrim%20Clinic%20%2C%20Lodha%20Road%2C%20Ganga%20Complex%20Masjid%2C%20Mira%20Road%20East%2C%20Mumbai%2C%20Maharashtra%20401107,19.28972626,72.8576355,,401107,Mira Bhayandar,Thane
Family Clinic,"Masjid Usman Road, Orchid Multispeciality Hospital, Mira Road East, Mumbai, Maharashtra 401107",https://www.bing.com/maps?cp=19.29020881652832%7E72.85841369628906&lvl=17.0&q=Family%20Clinic%20%2C%20Masjid%20Usman%20Road%2C%20Orchid%20Multispeciality%20Hospital%2C%20Mira%20Road%20East%2C%20Mumbai%2C%20Maharashtra%20401107,19.29020882,72.8584137,,401107,Mira Bhayandar,Thane
Barkat Medical,"Shop No 3, Saryu Sargam Chs Ltd, Lodha Road, Next To Sita Park, Naya Nagar, Mira Road East, Thane, Maharashtra 401107",https://www.bing.com/maps?cp=19.287883758544922%7E72.85791015625&lvl=17.0&q=Barkat%20Medical%20%2C%20Shop%20No%203%2C%20Saryu%20Sargam%20Chs%20Ltd%2C%20Lodha%20Road%2C%20Next%20To%20Sita%20Park%2C%20Naya%20Nagar%2C%20Mira%20Road%20East%2C%20Thane%2C%20Maharashtra%20401107,19.28788376,72.85791016,,401107,Mira Bhayandar,Thane
Barkaat Clinic,"2, Noorpur Road, Holy Cross Convent School, Mira Road East, Mumbai, Maharashtra 401107",https://www.bing.com/maps?cp=19.287975311279297%7E72.85603332519531&lvl=17.0&q=Barkaat%20Clinic%20%2C%202%2C%20Noorpur%20Road%2C%20Holy%20Cross%20Convent%20School%2C%20Mira%20Road%20East%2C%20Mumbai%2C%20Maharashtra%20401107,19.28797531,72.85603333,,401107,Mira Bhayandar,Thane
Dr Abdul Khalique Clinic,"Lodha Road, Patriot High School, Mira Road East, Mumbai, Maharashtra 401107",https://www.bing.com/maps?cp=19.290910720825195%7E72.8570327758789&lvl=17.0&q=Dr%20Abdul%20Khalique%20Clinic%20%2C%20Lodha%20Road%2C%20Patriot%20High%20School%2C%20Mira%20Road%20East%2C%20Mumbai%2C%20Maharashtra%20401107,19.29091072,72.85703278,,401107,Mira Bhayandar,Thane
Savitri Clinic,"Shop Number .13, 14, Golden Fleece, Queen's Park Road, Mira Road, Mumbai 401107",https://www.bing.com/maps?cp=19.291797637939453%7E72.8646240234375&lvl=17.0&q=Savitri%20Clinic%20%2C%20Shop%20Number%20.13%2C%2014%2C%20Golden%20Fleece%2C%20Queen's%20Park%20Road%2C%20Mira%20Road%2C%20Mumbai%20401107,19.29179764,72.86462402,022 2811 2212,401107,Mira Bhayandar,Thane
Yaa Shafi an Noor Clinic,"Shop NO 01 JAY Natraj Tower CHS LTD, Geeta Nagar Phase-1 OPP Sunrock-D, Thane, Maharashtra 401107",https://www.bing.com/maps?cp=19.28816795349121%7E72.86113739013672&lvl=17.0&q=Yaa%20Shafi%20an%20Noor%20Clinic%20%2C%20Shop%20NO%2001%20JAY%20Natraj%20Tower%20CHS%20LTD%2C%20Geeta%20Nagar%20Phase-1%20OPP%20Sunrock-D%2C%20Thane%2C%20Maharashtra%20401107,19.28816795,72.86113739,077387 36829,401107,Mira Bhayandar,Thane
Dr.Sameer N Gandhi's Clinic,"Sh42, Mira Road East, Mumbai, Maharashtra 401107",https://www.bing.com/maps?cp=19.29439353942871%7E72.86001586914062&lvl=17.0&q=Dr.Sameer%20N%20Gandhi's%20Clinic%20%2C%20Sh42%2C%20Mira%20Road%20East%2C%20Mumbai%2C%20Maharashtra%20401107,19.29439354,72.86001587,,401107,Mira Bhayandar,Thane
Agilus Diagnostics-Mira Road,"Shree Vakratund CHS, Mira Road, Thane, Maharashtra 401107",https://www.bing.com/maps?cp=19.294815063476562%7E72.85872650146484&lvl=17.0&q=Agilus%20Diagnostics-Mira%20Road%20%2C%20Shree%20Vakratund%20CHS%2C%20Mira%20Road%2C%20Thane%2C%20Maharashtra%20401107,19.29481506,72.8587265,080 6253 6242,401107,Mira Bhayandar,Thane
Astakem Labs,"Flat No 302 New Rahul Chs, Pokar Complex, Mira Road, Thane, Maharashtra 401107",https://www.bing.com/maps?cp=19.281963348388672%7E72.85710906982422&lvl=17.0&q=Astakem%20Labs%20%2C%20Flat%20No%20302%20New%20Rahul%20Chs%2C%20Pokar%20Complex%2C%20Mira%20Road%2C%20Thane%2C%20Maharashtra%20401107,19.28196335,72.85710907,,401107,Mira Bhayandar,Thane
Renuka Hospital Services,"C\203, Mira Bhayander, Beverly Park, Near Rbk School, Mira Road East, Thane, Maharashtra 401107",https://www.bing.com/maps?cp=19.290559768676758%7E72.86310577392578&lvl=17.0&q=Renuka%20Hospital%20Services%20%2C%20C%5C203%2C%20Mira%20Bhayander%2C%20Beverly%20Park%2C%20Near%20Rbk%20School%2C%20Mira%20Road%20East%2C%20Thane%2C%20Maharashtra%20401107,19.29055977,72.86310577,,401107,Mira Bhayandar,Thane
Crown Health Care Disposables,"Bhayandar East, Mumbai, Maharashtra 401105",https://www.bing.com/maps?cp=19.295608520507812%7E72.85773468017578&lvl=17.0&q=Crown%20Health%20Care%20Disposables%20%2C%20Bhayandar%20East%2C%20Mumbai%2C%20Maharashtra%20401105,19.29560852,72.85773468,097026 67544,401105,Mira Bhayandar,Thane
ishna Diagnostic centre and health care,"Shop no 5 Siddhi Enclave Opp RBK Global School, Indralok Phase 6 Bhayander East, Mira Bhayander, Maharashtra 401105",https://www.bing.com/maps?cp=19.291702270507812%7E72.8664779663086&lvl=17.0&q=ishna%20Diagnostic%20centre%20and%20health%20care%20%2C%20Shop%20no%205%20Siddhi%20Enclave%20Opp%20RBK%20Global%20School%2C%20Indralok%20Phase%206%20Bhayander%20East%2C%20Mira%20Bhayander%2C%20Maharashtra%20401105,19.29170227,72.86647797,079770 43796,401105,Mira Bhayandar,Thane
A J Diagnostics,"Masjid Usman Road, Mother Teresa School, Mira Road East, Mumbai, Maharashtra 401107",https://www.bing.com/maps?cp=19.290565490722656%7E72.85921478271484&lvl=17.0&q=A%20J%20Diagnostics%20%2C%20Masjid%20Usman%20Road%2C%20Mother%20Teresa%20School%2C%20Mira%20Road%20East%2C%20Mumbai%2C%20Maharashtra%20401107,19.29056549,72.85921478,022 2812 2213,401107,Mira Bhayandar,Thane
Krishna Kripa,"A-Sh-3, Pushpa Niketan Chs Ltd, Opp Salasar Brij Bhoomi, Temba Hospital Road, Bhayander West, Thane, Maharashtra 401101",https://www.bing.com/maps?cp=19.296171188354492%7E72.85230255126953&lvl=17.0&q=Krishna%20Kripa%20%2C%20A-Sh-3%2C%20Pushpa%20Niketan%20Chs%20Ltd%2C%20Opp%20Salasar%20Brij%20Bhoomi%2C%20Temba%20Hospital%20Road%2C%20Bhayander%20West%2C%20Thane%2C%20Maharashtra%20401101,19.29617119,72.85230255,,401101,Mira Bhayandar,Thane
Mamujee Clinic,"Jangid Complex Road, Canara Bank, Mira Road East, Mumbai, Maharashtra 401107",https://www.bing.com/maps?cp=19.27653694152832%7E72.87093353271484&lvl=17.0&q=Mamujee%20Clinic%20%2C%20Jangid%20Complex%20Road%2C%20Canara%20Bank%2C%20Mira%20Road%20East%2C%20Mumbai%2C%20Maharashtra%20401107,19.27653694,72.87093353,022 2812 1190,401107,Mira Bhayandar,Thane
Sai Yash Hospital,"Mira Bhayandar, Thane, Maharashtra 401107",https://www.bing.com/maps?cp=19.278369903564453%7E72.87295532226562&lvl=17.0&q=Sai%20Yash%20Hospital%20%2C%20Mira%20Bhayandar%2C%20Thane%2C%20Maharashtra%20401107,19.2783699,72.87295532,0251 244 2247,401107,Mira Bhayandar,Thane
Sai Siddhi Clinic,"94/95, Srishti Road, Silver Park Bus Stop, Mira Road East, Mumbai, Maharashtra 401107",https://www.bing.com/maps?cp=19.281368255615234%7E72.87250518798828&lvl=17.0&q=Sai%20Siddhi%20Clinic%20%2C%2094%2F95%2C%20Srishti%20Road%2C%20Silver%20Park%20Bus%20Stop%2C%20Mira%20Road%20East%2C%20Mumbai%2C%20Maharashtra%20401107,19.28136826,72.87250519,081040 26921,401107,Mira Bhayandar,Thane
Piles Clinic,"002, Bldg No. 18, Sector 10, Shanti Nagar, Mira Road East, Thane, Maharashtra 401107",https://www.bing.com/maps?cp=19.286334991455078%7E72.86885070800781&lvl=17.0&q=Piles%20Clinic%20%2C%20002%2C%20Bldg%20No.%2018%2C%20Sector%2010%2C%20Shanti%20Nagar%2C%20Mira%20Road%20East%2C%20Thane%2C%20Maharashtra%20401107,19.28633499,72.86885071,022 6524 3141,401107,Mira Bhayandar,Thane
Parmi Ayurvedic&Panchakarma Clinic Mira Road,"B-002, Sheetal Classic, Mtnl Road, Sheetal Nagar, Mira Road, Maharashtra 401107",https://www.bing.com/maps?cp=19.283212661743164%7E72.8658218383789&lvl=17.0&q=Parmi%20Ayurvedic%26Panchakarma%20Clinic%20Mira%20Road%20%2C%20B-002%2C%20Sheetal%20Classic%2C%20Mtnl%20Road%2C%20Sheetal%20Nagar%2C%20Mira%20Road%2C%20Maharashtra%20401107,19.28321266,72.86582184,098925 93938,401107,Mira Bhayandar,Thane
Gastrocare Clinic,"Bank Of Baroda, Mira Road East, Mumbai, Maharashtra 401107",https://www.bing.com/maps?cp=19.287893295288086%7E72.86964416503906&lvl=17.0&q=Gastrocare%20Clinic%20%2C%20Bank%20Of%20Baroda%2C%20Mira%20Road%20East%2C%20Mumbai%2C%20Maharashtra%20401107,19.2878933,72.86964417,089754 12448,401107,Mira Bhayandar,Thane
Shri Sai Salasar Ambulance Service,"Mauli Niwas Murdhavadi Uttan Road Bhayander, Thane, Maharashtra 401101",https://www.bing.com/maps?cp=19.277311325073242%7E72.79694366455078&lvl=17.0&q=Shri%20Sai%20Salasar%20Ambulance%20Service%20%2C%20Mauli%20Niwas%20Murdhavadi%20Uttan%20Road%20Bhayander%2C%20Thane%2C%20Maharashtra%20401101,19.27731133,72.79694366,086523 00706,401101,Mira Bhayandar,Thane
Akash Medical and General Store,"Dattatraya APT, A/302, 3, W S Road NR Mulgaonkar Hospital, Dahisar East, Mumbai, Maharashtra 400068",https://www.bing.com/maps?cp=19.245962142944336%7E72.85871887207031&lvl=17.0&q=Akash%20Medical%20and%20General%20Store%20%2C%20Dattatraya%20APT%2C%20A%2F302%2C%203%2C%20W%20S%20Road%20NR%20Mulgaonkar%20Hospital%2C%20Dahisar%20East%2C%20Mumbai%2C%20Maharashtra%20400068,19.24596214,72.85871887,,400068,Dahisar,Mumbai
Quantum Pathology LLP,"Off2Jayshreesalasarvrinda, Vanchsbrijbhoomiopp.Maxus, Bhayander West, Thane, Maharashtra 401101",https://www.bing.com/maps?cp=19.297077178955078%7E72.84320068359375&lvl=17.0&q=Quantum%20Pathology%20LLP%20%2C%20Off2Jayshreesalasarvrinda%2C%20Vanchsbrijbhoomiopp.Maxus%2C%20Bhayander%20West%2C%20Thane%2C%20Maharashtra%20401101,19.29707718,72.84320068,,401101,Mira Bhayandar,Thane
Lord Shiva Pharmaceuticals,"A\8, 002, Prem Kiran Building, Shanti Nagar, Sector 2, Near Sanjivani Hospital, Mira Road, Thane, Maharashtra 401107",https://www.bing.com/maps?cp=19.270774841308594%7E72.8724594116211&lvl=17.0&q=Lord%20Shiva%20Pharmaceuticals%20%2C%20A%5C8%2C%20002%2C%20Prem%20Kiran%20Building%2C%20Shanti%20Nagar%2C%20Sector%202%2C%20Near%20Sanjivani%20Hospital%2C%20Mira%20Road%2C%20Thane%2C%20Maharashtra%20401107,19.27077484,72.87245941,,401107,Mira Bhayandar,Thane
Aaiji Medical & General Stores,"Ostwal Avenue BHD, Akash Nidhi Complex, C-SH 22, Ground Floor, Ramdev Park Road, Mira Road East, Thane, Maharashtra 401107",https://www.bing.com/maps?cp=19.298755645751953%7E72.87226104736328&lvl=17.0&q=Aaiji%20Medical%20%26%20General%20Stores%20%2C%20Ostwal%20Avenue%20BHD%2C%20Akash%20Nidhi%20Complex%2C%20C-SH%2022%2C%20Ground%20Floor%2C%20Ramdev%20Park%20Road%2C%20Mira%20Road%20East%2C%20Thane%2C%20Maharashtra%20401107,19.29875565,72.87226105,088987 30961,401107,Mira Bhayandar,Thane
Elina Medical Agency,"Sita Nagar Chsl, Shop NO A/004, Navghar Cross Road, Bhayander, East, Thane, Maharashtra 401105",https://www.bing.com/maps?cp=19.306182861328125%7E72.86141967773438&lvl=17.0&q=Elina%20Medical%20Agency%20%2C%20Sita%20Nagar%20Chsl%2C%20Shop%20NO%20A%2F004%2C%20Navghar%20Cross%20Road%2C%20Bhayander%2C%20East%2C%20Thane%2C%20Maharashtra%20401105,19.30618286,72.86141968,,401105,Mira Bhayandar,Thane
